{
  "type": "FeatureCollection",
  "features": [
    {
      "type": "Feature",
      "properties": {
        "Property_ID": "M-SHAKTI-1000",
        "Khasra_Ref": null,
        "Tax_Owner": "UNKNOWN / DISPUTED",
        "Usage_Category": "COM",
        "Assessment_Year": 2024
      },
      "geometry": {
        "type": "Polygon",
        "coordinates": [
          [
            [
              82.499962,
              24.999961999999996
            ],
            [
              82.50096523286877,
              24.999961999999996
            ],
            [
              82.50098799999999,
              25.000988
            ],
            [
              82.499962,
              25.000975633915726
            ],
            [
              82.499962,
              24.999961999999996
            ]
          ]
        ]
      }
    },
    {
      "type": "Feature",
      "properties": {
        "Property_ID": "M-SHAKTI-1001",
        "Khasra_Ref": "102",
        "Tax_Owner": "Owner_102",
        "Usage_Category": "AGR",
        "Assessment_Year": 2024
      },
      "geometry": {
        "type": "Polygon",
        "coordinates": [
          [
            [
              82.5,
              25.001
            ],
            [
              82.50092391805741,
              25.001
            ],
            [
              82.50095,
              25.00195
            ],
            [
              82.5,
              25.001956535298852
            ],
            [
              82.5,
              25.001
            ]
          ]
        ]
      }
    },
    {
      "type": "Feature",
      "properties": {
        "Property_ID": "M-SHAKTI-1002",
        "Khasra_Ref": "103",
        "Tax_Owner": "Owner_103",
        "Usage_Category": "AGR",
        "Assessment_Year": 2024
      },
      "geometry": {
        "type": "Polygon",
        "coordinates": [
          [
            [
              82.5,
              25.002
            ],
            [
              82.50092724360815,
              25.002
            ],
            [
              82.50095,
              25.00295
            ],
            [
              82.5,
              25.002943656464826
            ],
            [
              82.5,
              25.002
            ]
          ]
        ]
      }
    },
    {
      "type": "Feature",
      "properties": {
        "Property_ID": "M-SHAKTI-1003",
        "Khasra_Ref": "104",
        "Tax_Owner": "UNKNOWN / DISPUTED",
        "Usage_Category": "RES",
        "Assessment_Year": 2024
      },
      "geometry": {
        "type": "Polygon",
        "coordinates": [
          [
            [
              82.5,
              25.003
            ],
            [
              82.50095480823386,
              25.003
            ],
            [
              82.50095,
              25.00395
            ],
            [
              82.5,
              25.00390375012311
            ],
            [
              82.5,
              25.003
            ]
          ]
        ]
      }
    },
    {
      "type": "Feature",
      "properties": {
        "Property_ID": "M-SHAKTI-1004",
        "Khasra_Ref": "105",
        "Tax_Owner": "Owner_105",
        "Usage_Category": "AGR",
        "Assessment_Year": 2024
      },
      "geometry": {
        "type": "Polygon",
        "coordinates": [
          [
            [
              82.5,
              25.004
            ],
            [
              82.50094663507095,
              25.004
            ],
            [
              82.50095,
              25.00495
            ],
            [
              82.5,
              25.004942884386455
            ],
            [
              82.5,
              25.004
            ]
          ]
        ]
      }
    },
    {
      "type": "Feature",
      "properties": {
        "Property_ID": "M-SHAKTI-1005",
        "Khasra_Ref": null,
        "Tax_Owner": "Owner_106",
        "Usage_Category": "RES",
        "Assessment_Year": 2024
      },
      "geometry": {
        "type": "Polygon",
        "coordinates": [
          [
            [
              82.5,
              25.005
            ],
            [
              82.50094183998269,
              25.005
            ],
            [
              82.50095,
              25.00595
            ],
            [
              82.5,
              25.0059610188052
            ],
            [
              82.5,
              25.005
            ]
          ]
        ]
      }
    },
    {
      "type": "Feature",
      "properties": {
        "Property_ID": "M-SHAKTI-1006",
        "Khasra_Ref": "107",
        "Tax_Owner": "UNKNOWN / DISPUTED",
        "Usage_Category": "RES",
        "Assessment_Year": 2024
      },
      "geometry": {
        "type": "Polygon",
        "coordinates": [
          [
            [
              82.5,
              25.006
            ],
            [
              82.50097135444494,
              25.006
            ],
            [
              82.50095,
              25.00695
            ],
            [
              82.5,
              25.00698920324981
            ],
            [
              82.5,
              25.006
            ]
          ]
        ]
      }
    },
    {
      "type": "Feature",
      "properties": {
        "Property_ID": "M-SHAKTI-1007",
        "Khasra_Ref": "108",
        "Tax_Owner": "Owner_108",
        "Usage_Category": "COM",
        "Assessment_Year": 2024
      },
      "geometry": {
        "type": "Polygon",
        "coordinates": [
          [
            [
              82.5,
              25.007
            ],
            [
              82.50098167789952,
              25.007
            ],
            [
              82.50095,
              25.00795
            ],
            [
              82.5,
              25.007947903944345
            ],
            [
              82.5,
              25.007
            ]
          ]
        ]
      }
    },
    {
      "type": "Feature",
      "properties": {
        "Property_ID": "M-SHAKTI-1008",
        "Khasra_Ref": "109",
        "Tax_Owner": "Owner_109",
        "Usage_Category": "COM",
        "Assessment_Year": 2024
      },
      "geometry": {
        "type": "Polygon",
        "coordinates": [
          [
            [
              82.5,
              25.008
            ],
            [
              82.5009647969416,
              25.008
            ],
            [
              82.50095,
              25.00895
            ],
            [
              82.5,
              25.008941099380568
            ],
            [
              82.5,
              25.008
            ]
          ]
        ]
      }
    },
    {
      "type": "Feature",
      "properties": {
        "Property_ID": "M-SHAKTI-1009",
        "Khasra_Ref": "110",
        "Tax_Owner": "UNKNOWN / DISPUTED",
        "Usage_Category": "AGR",
        "Assessment_Year": 2024
      },
      "geometry": {
        "type": "Polygon",
        "coordinates": [
          [
            [
              82.5,
              25.009
            ],
            [
              82.5009896886981,
              25.009
            ],
            [
              82.50095,
              25.00995
            ],
            [
              82.5,
              25.009964028693915
            ],
            [
              82.5,
              25.009
            ]
          ]
        ]
      }
    },
    {
      "type": "Feature",
      "properties": {
        "Property_ID": "M-SHAKTI-1010",
        "Khasra_Ref": null,
        "Tax_Owner": "Owner_111",
        "Usage_Category": "AGR",
        "Assessment_Year": 2024
      },
      "geometry": {
        "type": "Polygon",
        "coordinates": [
          [
            [
              82.50096046975274,
              24.999961999999996
            ],
            [
              82.50202778642891,
              24.999961999999996
            ],
            [
              82.50198646975275,
              25.000988
            ],
            [
              82.50096046975274,
              25.000973240812705
            ],
            [
              82.50096046975274,
              24.999961999999996
            ]
          ]
        ]
      }
    },
    {
      "type": "Feature",
      "properties": {
        "Property_ID": "M-SHAKTI-1011",
        "Khasra_Ref": "112",
        "Tax_Owner": "Owner_112",
        "Usage_Category": "MIX",
        "Assessment_Year": 2024
      },
      "geometry": {
        "type": "Polygon",
        "coordinates": [
          [
            [
              82.501,
              25.001
            ],
            [
              82.50197005071936,
              25.001
            ],
            [
              82.50195000000001,
              25.00195
            ],
            [
              82.501,
              25.001912248218552
            ],
            [
              82.501,
              25.001
            ]
          ]
        ]
      }
    },
    {
      "type": "Feature",
      "properties": {
        "Property_ID": "M-SHAKTI-1012",
        "Khasra_Ref": "113",
        "Tax_Owner": "UNKNOWN / DISPUTED",
        "Usage_Category": "RES",
        "Assessment_Year": 2024
      },
      "geometry": {
        "type": "Polygon",
        "coordinates": [
          [
            [
              82.501,
              25.002
            ],
            [
              82.5019941984533,
              25.002
            ],
            [
              82.50195000000001,
              25.00295
            ],
            [
              82.501,
              25.002969929840912
            ],
            [
              82.501,
              25.002
            ]
          ]
        ]
      }
    },
    {
      "type": "Feature",
      "properties": {
        "Property_ID": "M-SHAKTI-1013",
        "Khasra_Ref": "114",
        "Tax_Owner": "Owner_114",
        "Usage_Category": "AGR",
        "Assessment_Year": 2024
      },
      "geometry": {
        "type": "Polygon",
        "coordinates": [
          [
            [
              82.501,
              25.003
            ],
            [
              82.5019910307439,
              25.003
            ],
            [
              82.50195000000001,
              25.00395
            ],
            [
              82.501,
              25.003979516467812
            ],
            [
              82.501,
              25.003
            ]
          ]
        ]
      }
    },
    {
      "type": "Feature",
      "properties": {
        "Property_ID": "M-SHAKTI-1014",
        "Khasra_Ref": "115",
        "Tax_Owner": "Owner_115",
        "Usage_Category": "AGR",
        "Assessment_Year": 2024
      },
      "geometry": {
        "type": "Polygon",
        "coordinates": [
          [
            [
              82.501,
              25.004
            ],
            [
              82.50191268022483,
              25.004
            ],
            [
              82.50195000000001,
              25.00495
            ],
            [
              82.501,
              25.00498792740181
            ],
            [
              82.501,
              25.004
            ]
          ]
        ]
      }
    },
    {
      "type": "Feature",
      "properties": {
        "Property_ID": "M-SHAKTI-1015",
        "Khasra_Ref": null,
        "Tax_Owner": "UNKNOWN / DISPUTED",
        "Usage_Category": "MIX",
        "Assessment_Year": 2024
      },
      "geometry": {
        "type": "Polygon",
        "coordinates": [
          [
            [
              82.501,
              25.005
            ],
            [
              82.50190750501271,
              25.005
            ],
            [
              82.50195000000001,
              25.00595
            ],
            [
              82.501,
              25.0059246871698
            ],
            [
              82.501,
              25.005
            ]
          ]
        ]
      }
    },
    {
      "type": "Feature",
      "properties": {
        "Property_ID": "M-SHAKTI-1016",
        "Khasra_Ref": "117",
        "Tax_Owner": "Owner_117",
        "Usage_Category": "MIX",
        "Assessment_Year": 2024
      },
      "geometry": {
        "type": "Polygon",
        "coordinates": [
          [
            [
              82.501,
              25.006
            ],
            [
              82.50195061745177,
              25.006
            ],
            [
              82.50195000000001,
              25.00695
            ],
            [
              82.501,
              25.00699908446952
            ],
            [
              82.501,
              25.006
            ]
          ]
        ]
      }
    },
    {
      "type": "Feature",
      "properties": {
        "Property_ID": "M-SHAKTI-1017",
        "Khasra_Ref": "118",
        "Tax_Owner": "Owner_118",
        "Usage_Category": "MIX",
        "Assessment_Year": 2024
      },
      "geometry": {
        "type": "Polygon",
        "coordinates": [
          [
            [
              82.501,
              25.007
            ],
            [
              82.50199834643917,
              25.007
            ],
            [
              82.50195000000001,
              25.00795
            ],
            [
              82.501,
              25.007988470305712
            ],
            [
              82.501,
              25.007
            ]
          ]
        ]
      }
    },
    {
      "type": "Feature",
      "properties": {
        "Property_ID": "M-SHAKTI-1018",
        "Khasra_Ref": "119",
        "Tax_Owner": "UNKNOWN / DISPUTED",
        "Usage_Category": "COM",
        "Assessment_Year": 2024
      },
      "geometry": {
        "type": "Polygon",
        "coordinates": [
          [
            [
              82.501,
              25.008
            ],
            [
              82.50193192132001,
              25.008
            ],
            [
              82.50195000000001,
              25.00895
            ],
            [
              82.501,
              25.00891050186687
            ],
            [
              82.501,
              25.008
            ]
          ]
        ]
      }
    },
    {
      "type": "Feature",
      "properties": {
        "Property_ID": "M-SHAKTI-1019",
        "Khasra_Ref": "120",
        "Tax_Owner": "Owner_120",
        "Usage_Category": "AGR",
        "Assessment_Year": 2024
      },
      "geometry": {
        "type": "Polygon",
        "coordinates": [
          [
            [
              82.501,
              25.009
            ],
            [
              82.50190527551501,
              25.009
            ],
            [
              82.50195000000001,
              25.00995
            ],
            [
              82.501,
              25.009959661629836
            ],
            [
              82.501,
              25.009
            ]
          ]
        ]
      }
    },
    {
      "type": "Feature",
      "properties": {
        "Property_ID": "M-SHAKTI-1020",
        "Khasra_Ref": null,
        "Tax_Owner": "Owner_121",
        "Usage_Category": "COM",
        "Assessment_Year": 2024
      },
      "geometry": {
        "type": "Polygon",
        "coordinates": [
          [
            [
              82.50196104980517,
              24.999961999999996
            ],
            [
              82.50301270506534,
              24.999961999999996
            ],
            [
              82.50298704980518,
              25.000988
            ],
            [
              82.50196104980517,
              25.000970854320826
            ],
            [
              82.50196104980517,
              24.999961999999996
            ]
          ]
        ]
      }
    },
    {
      "type": "Feature",
      "properties": {
        "Property_ID": "M-SHAKTI-1021",
        "Khasra_Ref": "122",
        "Tax_Owner": "UNKNOWN / DISPUTED",
        "Usage_Category": "COM",
        "Assessment_Year": 2024
      },
      "geometry": {
        "type": "Polygon",
        "coordinates": [
          [
            [
              82.502,
              25.001
            ],
            [
              82.50291840290927,
              25.001
            ],
            [
              82.50295,
              25.00195
            ],
            [
              82.502,
              25.001912917253808
            ],
            [
              82.502,
              25.001
            ]
          ]
        ]
      }
    },
    {
      "type": "Feature",
      "properties": {
        "Property_ID": "M-SHAKTI-1022",
        "Khasra_Ref": "123",
        "Tax_Owner": "Owner_123",
        "Usage_Category": "AGR",
        "Assessment_Year": 2024
      },
      "geometry": {
        "type": "Polygon",
        "coordinates": [
          [
            [
              82.502,
              25.002
            ],
            [
              82.50296193362479,
              25.002
            ],
            [
              82.50295,
              25.00295
            ],
            [
              82.502,
              25.002932305335275
            ],
            [
              82.502,
              25.002
            ]
          ]
        ]
      }
    },
    {
      "type": "Feature",
      "properties": {
        "Property_ID": "M-SHAKTI-1023",
        "Khasra_Ref": "124",
        "Tax_Owner": "Owner_124",
        "Usage_Category": "COM",
        "Assessment_Year": 2024
      },
      "geometry": {
        "type": "Polygon",
        "coordinates": [
          [
            [
              82.502,
              25.003
            ],
            [
              82.50299612585279,
              25.003
            ],
            [
              82.50295,
              25.00395
            ],
            [
              82.502,
              25.00399930809792
            ],
            [
              82.502,
              25.003
            ]
          ]
        ]
      }
    },
    {
      "type": "Feature",
      "properties": {
        "Property_ID": "M-SHAKTI-1024",
        "Khasra_Ref": "125",
        "Tax_Owner": "UNKNOWN / DISPUTED",
        "Usage_Category": "RES",
        "Assessment_Year": 2024
      },
      "geometry": {
        "type": "Polygon",
        "coordinates": [
          [
            [
              82.502,
              25.004
            ],
            [
              82.50290155007185,
              25.004
            ],
            [
              82.50295,
              25.00495
            ],
            [
              82.502,
              25.00498606578318
            ],
            [
              82.502,
              25.004
            ]
          ]
        ]
      }
    },
    {
      "type": "Feature",
      "properties": {
        "Property_ID": "M-SHAKTI-1025",
        "Khasra_Ref": null,
        "Tax_Owner": "Owner_126",
        "Usage_Category": "RES",
        "Assessment_Year": 2024
      },
      "geometry": {
        "type": "Polygon",
        "coordinates": [
          [
            [
              82.502,
              25.005
            ],
            [
              82.50291252201764,
              25.005
            ],
            [
              82.50295,
              25.00595
            ],
            [
              82.502,
              25.005972162081715
            ],
            [
              82.502,
              25.005
            ]
          ]
        ]
      }
    },
    {
      "type": "Feature",
      "properties": {
        "Property_ID": "M-SHAKTI-1026",
        "Khasra_Ref": "127",
        "Tax_Owner": "Owner_127",
        "Usage_Category": "AGR",
        "Assessment_Year": 2024
      },
      "geometry": {
        "type": "Polygon",
        "coordinates": [
          [
            [
              82.502,
              25.006
            ],
            [
              82.50292819755055,
              25.006
            ],
            [
              82.50295,
              25.00695
            ],
            [
              82.502,
              25.0069028362856
            ],
            [
              82.502,
              25.006
            ]
          ]
        ]
      }
    },
    {
      "type": "Feature",
      "properties": {
        "Property_ID": "M-SHAKTI-1027",
        "Khasra_Ref": "128",
        "Tax_Owner": "UNKNOWN / DISPUTED",
        "Usage_Category": "AGR",
        "Assessment_Year": 2024
      },
      "geometry": {
        "type": "Polygon",
        "coordinates": [
          [
            [
              82.502,
              25.007
            ],
            [
              82.50293649665446,
              25.007
            ],
            [
              82.50295,
              25.00795
            ],
            [
              82.502,
              25.007958327776663
            ],
            [
              82.502,
              25.007
            ]
          ]
        ]
      }
    },
    {
      "type": "Feature",
      "properties": {
        "Property_ID": "M-SHAKTI-1028",
        "Khasra_Ref": "129",
        "Tax_Owner": "Owner_129",
        "Usage_Category": "RES",
        "Assessment_Year": 2024
      },
      "geometry": {
        "type": "Polygon",
        "coordinates": [
          [
            [
              82.502,
              25.008
            ],
            [
              82.50296125876318,
              25.008
            ],
            [
              82.50295,
              25.00895
            ],
            [
              82.502,
              25.008979143600417
            ],
            [
              82.502,
              25.008
            ]
          ]
        ]
      }
    },
    {
      "type": "Feature",
      "properties": {
        "Property_ID": "M-SHAKTI-1029",
        "Khasra_Ref": "130",
        "Tax_Owner": "Owner_130",
        "Usage_Category": "MIX",
        "Assessment_Year": 2024
      },
      "geometry": {
        "type": "Polygon",
        "coordinates": [
          [
            [
              82.502,
              25.009
            ],
            [
              82.50295591913856,
              25.009
            ],
            [
              82.50295,
              25.00995
            ],
            [
              82.502,
              25.00991720232913
            ],
            [
              82.502,
              25.009
            ]
          ]
        ]
      }
    },
    {
      "type": "Feature",
      "properties": {
        "Property_ID": "M-SHAKTI-1030",
        "Khasra_Ref": null,
        "Tax_Owner": "UNKNOWN / DISPUTED",
        "Usage_Category": "AGR",
        "Assessment_Year": 2024
      },
      "geometry": {
        "type": "Polygon",
        "coordinates": [
          [
            [
              82.502962,
              24.999961999999996
            ],
            [
              82.503950777213,
              24.999961999999996
            ],
            [
              82.503988,
              25.000988
            ],
            [
              82.502962,
              25.000980627486648
            ],
            [
              82.502962,
              24.999961999999996
            ]
          ]
        ]
      }
    },
    {
      "type": "Feature",
      "properties": {
        "Property_ID": "M-SHAKTI-1031",
        "Khasra_Ref": "132",
        "Tax_Owner": "Owner_132",
        "Usage_Category": "RES",
        "Assessment_Year": 2024
      },
      "geometry": {
        "type": "Polygon",
        "coordinates": [
          [
            [
              82.503,
              25.001
            ],
            [
              82.50391173582518,
              25.001
            ],
            [
              82.50395,
              25.00195
            ],
            [
              82.503,
              25.00198192742146
            ],
            [
              82.503,
              25.001
            ]
          ]
        ]
      }
    },
    {
      "type": "Feature",
      "properties": {
        "Property_ID": "M-SHAKTI-1032",
        "Khasra_Ref": "133",
        "Tax_Owner": "Owner_133",
        "Usage_Category": "AGR",
        "Assessment_Year": 2024
      },
      "geometry": {
        "type": "Polygon",
        "coordinates": [
          [
            [
              82.503,
              25.002
            ],
            [
              82.5039507247812,
              25.002
            ],
            [
              82.50395,
              25.00295
            ],
            [
              82.503,
              25.002991150388393
            ],
            [
              82.503,
              25.002
            ]
          ]
        ]
      }
    },
    {
      "type": "Feature",
      "properties": {
        "Property_ID": "M-SHAKTI-1033",
        "Khasra_Ref": "134",
        "Tax_Owner": "UNKNOWN / DISPUTED",
        "Usage_Category": "RES",
        "Assessment_Year": 2024
      },
      "geometry": {
        "type": "Polygon",
        "coordinates": [
          [
            [
              82.503,
              25.003
            ],
            [
              82.50399274921689,
              25.003
            ],
            [
              82.50395,
              25.00395
            ],
            [
              82.503,
              25.003965163112014
            ],
            [
              82.503,
              25.003
            ]
          ]
        ]
      }
    },
    {
      "type": "Feature",
      "properties": {
        "Property_ID": "M-SHAKTI-1034",
        "Khasra_Ref": "135",
        "Tax_Owner": "Owner_135",
        "Usage_Category": "RES",
        "Assessment_Year": 2024
      },
      "geometry": {
        "type": "Polygon",
        "coordinates": [
          [
            [
              82.503,
              25.004
            ],
            [
              82.50397630882807,
              25.004
            ],
            [
              82.50395,
              25.00495
            ],
            [
              82.503,
              25.004975771974795
            ],
            [
              82.503,
              25.004
            ]
          ]
        ]
      }
    },
    {
      "type": "Feature",
      "properties": {
        "Property_ID": "M-SHAKTI-1035",
        "Khasra_Ref": null,
        "Tax_Owner": "Owner_136",
        "Usage_Category": "COM",
        "Assessment_Year": 2024
      },
      "geometry": {
        "type": "Polygon",
        "coordinates": [
          [
            [
              82.503,
              25.005
            ],
            [
              82.5039497265888,
              25.005
            ],
            [
              82.50395,
              25.00595
            ],
            [
              82.503,
              25.00591064231013
            ],
            [
              82.503,
              25.005
            ]
          ]
        ]
      }
    },
    {
      "type": "Feature",
      "properties": {
        "Property_ID": "M-SHAKTI-1036",
        "Khasra_Ref": "137",
        "Tax_Owner": "UNKNOWN / DISPUTED",
        "Usage_Category": "AGR",
        "Assessment_Year": 2024
      },
      "geometry": {
        "type": "Polygon",
        "coordinates": [
          [
            [
              82.503,
              25.006
            ],
            [
              82.5039247543764,
              25.006
            ],
            [
              82.50395,
              25.00695
            ],
            [
              82.503,
              25.0069739428693
            ],
            [
              82.503,
              25.006
            ]
          ]
        ]
      }
    },
    {
      "type": "Feature",
      "properties": {
        "Property_ID": "M-SHAKTI-1037",
        "Khasra_Ref": "138",
        "Tax_Owner": "Owner_138",
        "Usage_Category": "COM",
        "Assessment_Year": 2024
      },
      "geometry": {
        "type": "Polygon",
        "coordinates": [
          [
            [
              82.503,
              25.007
            ],
            [
              82.50390154874154,
              25.007
            ],
            [
              82.50395,
              25.00795
            ],
            [
              82.503,
              25.007982761929203
            ],
            [
              82.503,
              25.007
            ]
          ]
        ]
      }
    },
    {
      "type": "Feature",
      "properties": {
        "Property_ID": "M-SHAKTI-1038",
        "Khasra_Ref": "139",
        "Tax_Owner": "Owner_139",
        "Usage_Category": "COM",
        "Assessment_Year": 2024
      },
      "geometry": {
        "type": "Polygon",
        "coordinates": [
          [
            [
              82.503,
              25.008
            ],
            [
              82.50397280031089,
              25.008
            ],
            [
              82.50395,
              25.00895
            ],
            [
              82.503,
              25.008923665456276
            ],
            [
              82.503,
              25.008
            ]
          ]
        ]
      }
    },
    {
      "type": "Feature",
      "properties": {
        "Property_ID": "M-SHAKTI-1039",
        "Khasra_Ref": "140",
        "Tax_Owner": "UNKNOWN / DISPUTED",
        "Usage_Category": "COM",
        "Assessment_Year": 2024
      },
      "geometry": {
        "type": "Polygon",
        "coordinates": [
          [
            [
              82.503,
              25.009
            ],
            [
              82.50390627813063,
              25.009
            ],
            [
              82.50395,
              25.00995
            ],
            [
              82.503,
              25.009947458274265
            ],
            [
              82.503,
              25.009
            ]
          ]
        ]
      }
    },
    {
      "type": "Feature",
      "properties": {
        "Property_ID": "M-SHAKTI-1040",
        "Khasra_Ref": null,
        "Tax_Owner": "Owner_141",
        "Usage_Category": "COM",
        "Assessment_Year": 2024
      },
      "geometry": {
        "type": "Polygon",
        "coordinates": [
          [
            [
              82.50396121978353,
              24.99996123594794
            ],
            [
              82.50500828562829,
              24.99996123594794
            ],
            [
              82.50498721978353,
              25.000987235947942
            ],
            [
              82.50396121978353,
              25.001007865353497
            ],
            [
              82.50396121978353,
              24.99996123594794
            ]
          ]
        ]
      }
    },
    {
      "type": "Feature",
      "properties": {
        "Property_ID": "M-SHAKTI-1041",
        "Khasra_Ref": "142",
        "Tax_Owner": "Owner_142",
        "Usage_Category": "AGR",
        "Assessment_Year": 2024
      },
      "geometry": {
        "type": "Polygon",
        "coordinates": [
          [
            [
              82.504,
              25.001
            ],
            [
              82.50495105142986,
              25.001
            ],
            [
              82.50495000000001,
              25.00195
            ],
            [
              82.504,
              25.001991007484392
            ],
            [
              82.504,
              25.001
            ]
          ]
        ]
      }
    },
    {
      "type": "Feature",
      "properties": {
        "Property_ID": "M-SHAKTI-1042",
        "Khasra_Ref": "143",
        "Tax_Owner": "UNKNOWN / DISPUTED",
        "Usage_Category": "COM",
        "Assessment_Year": 2024
      },
      "geometry": {
        "type": "Polygon",
        "coordinates": [
          [
            [
              82.504,
              25.002
            ],
            [
              82.50494513004341,
              25.002
            ],
            [
              82.50495000000001,
              25.00295
            ],
            [
              82.504,
              25.002996292201328
            ],
            [
              82.504,
              25.002
            ]
          ]
        ]
      }
    },
    {
      "type": "Feature",
      "properties": {
        "Property_ID": "M-SHAKTI-1043",
        "Khasra_Ref": "144",
        "Tax_Owner": "Owner_144",
        "Usage_Category": "MIX",
        "Assessment_Year": 2024
      },
      "geometry": {
        "type": "Polygon",
        "coordinates": [
          [
            [
              82.504,
              25.003
            ],
            [
              82.50491326528943,
              25.003
            ],
            [
              82.50495000000001,
              25.00395
            ],
            [
              82.504,
              25.00398177880472
            ],
            [
              82.504,
              25.003
            ]
          ]
        ]
      }
    },
    {
      "type": "Feature",
      "properties": {
        "Property_ID": "M-SHAKTI-1044",
        "Khasra_Ref": "145",
        "Tax_Owner": "Owner_145",
        "Usage_Category": "COM",
        "Assessment_Year": 2024
      },
      "geometry": {
        "type": "Polygon",
        "coordinates": [
          [
            [
              82.504,
              25.004
            ],
            [
              82.50497592269325,
              25.004
            ],
            [
              82.50495000000001,
              25.00495
            ],
            [
              82.504,
              25.004984610331746
            ],
            [
              82.504,
              25.004
            ]
          ]
        ]
      }
    },
    {
      "type": "Feature",
      "properties": {
        "Property_ID": "M-SHAKTI-1045",
        "Khasra_Ref": null,
        "Tax_Owner": "UNKNOWN / DISPUTED",
        "Usage_Category": "MIX",
        "Assessment_Year": 2024
      },
      "geometry": {
        "type": "Polygon",
        "coordinates": [
          [
            [
              82.504,
              25.005
            ],
            [
              82.50497840406503,
              25.005
            ],
            [
              82.50495000000001,
              25.00595
            ],
            [
              82.504,
              25.00597311409218
            ],
            [
              82.504,
              25.005
            ]
          ]
        ]
      }
    },
    {
      "type": "Feature",
      "properties": {
        "Property_ID": "M-SHAKTI-1046",
        "Khasra_Ref": "147",
        "Tax_Owner": "Owner_147",
        "Usage_Category": "RES",
        "Assessment_Year": 2024
      },
      "geometry": {
        "type": "Polygon",
        "coordinates": [
          [
            [
              82.504,
              25.006
            ],
            [
              82.50493399423732,
              25.006
            ],
            [
              82.50495000000001,
              25.00695
            ],
            [
              82.504,
              25.00691650880302
            ],
            [
              82.504,
              25.006
            ]
          ]
        ]
      }
    },
    {
      "type": "Feature",
      "properties": {
        "Property_ID": "M-SHAKTI-1047",
        "Khasra_Ref": "148",
        "Tax_Owner": "Owner_148",
        "Usage_Category": "RES",
        "Assessment_Year": 2024
      },
      "geometry": {
        "type": "Polygon",
        "coordinates": [
          [
            [
              82.504,
              25.007
            ],
            [
              82.50494398676364,
              25.007
            ],
            [
              82.50495000000001,
              25.00795
            ],
            [
              82.504,
              25.007985787604373
            ],
            [
              82.504,
              25.007
            ]
          ]
        ]
      }
    },
    {
      "type": "Feature",
      "properties": {
        "Property_ID": "M-SHAKTI-1048",
        "Khasra_Ref": "149",
        "Tax_Owner": "UNKNOWN / DISPUTED",
        "Usage_Category": "COM",
        "Assessment_Year": 2024
      },
      "geometry": {
        "type": "Polygon",
        "coordinates": [
          [
            [
              82.504,
              25.008
            ],
            [
              82.50494060158815,
              25.008
            ],
            [
              82.50495000000001,
              25.00895
            ],
            [
              82.504,
              25.008931336203492
            ],
            [
              82.504,
              25.008
            ]
          ]
        ]
      }
    },
    {
      "type": "Feature",
      "properties": {
        "Property_ID": "M-SHAKTI-1049",
        "Khasra_Ref": "150",
        "Tax_Owner": "Owner_150",
        "Usage_Category": "COM",
        "Assessment_Year": 2024
      },
      "geometry": {
        "type": "Polygon",
        "coordinates": [
          [
            [
              82.504,
              25.009
            ],
            [
              82.50490873856187,
              25.009
            ],
            [
              82.50495000000001,
              25.00995
            ],
            [
              82.504,
              25.00995415167214
            ],
            [
              82.504,
              25.009
            ]
          ]
        ]
      }
    },
    {
      "type": "Feature",
      "properties": {
        "Property_ID": "M-SHAKTI-1050",
        "Khasra_Ref": null,
        "Tax_Owner": "Owner_151",
        "Usage_Category": "COM",
        "Assessment_Year": 2024
      },
      "geometry": {
        "type": "Polygon",
        "coordinates": [
          [
            [
              82.50496199999999,
              24.999961999999996
            ],
            [
              82.50596945683719,
              24.999961999999996
            ],
            [
              82.50598799999999,
              25.000988
            ],
            [
              82.50496199999999,
              25.000947369947557
            ],
            [
              82.50496199999999,
              24.999961999999996
            ]
          ]
        ]
      }
    },
    {
      "type": "Feature",
      "properties": {
        "Property_ID": "M-SHAKTI-1051",
        "Khasra_Ref": "152",
        "Tax_Owner": "UNKNOWN / DISPUTED",
        "Usage_Category": "RES",
        "Assessment_Year": 2024
      },
      "geometry": {
        "type": "Polygon",
        "coordinates": [
          [
            [
              82.505,
              25.001
            ],
            [
              82.50593284865231,
              25.001
            ],
            [
              82.50595,
              25.00195
            ],
            [
              82.505,
              25.001946629065365
            ],
            [
              82.505,
              25.001
            ]
          ]
        ]
      }
    },
    {
      "type": "Feature",
      "properties": {
        "Property_ID": "M-SHAKTI-1052",
        "Khasra_Ref": "153",
        "Tax_Owner": "Owner_153",
        "Usage_Category": "COM",
        "Assessment_Year": 2024
      },
      "geometry": {
        "type": "Polygon",
        "coordinates": [
          [
            [
              82.505,
              25.002
            ],
            [
              82.50597784272728,
              25.002
            ],
            [
              82.50595,
              25.00295
            ],
            [
              82.505,
              25.002967195597574
            ],
            [
              82.505,
              25.002
            ]
          ]
        ]
      }
    },
    {
      "type": "Feature",
      "properties": {
        "Property_ID": "M-SHAKTI-1053",
        "Khasra_Ref": "154",
        "Tax_Owner": "Owner_154",
        "Usage_Category": "MIX",
        "Assessment_Year": 2024
      },
      "geometry": {
        "type": "Polygon",
        "coordinates": [
          [
            [
              82.505,
              25.003
            ],
            [
              82.50593327829793,
              25.003
            ],
            [
              82.50595,
              25.00395
            ],
            [
              82.505,
              25.003991125263553
            ],
            [
              82.505,
              25.003
            ]
          ]
        ]
      }
    },
    {
      "type": "Feature",
      "properties": {
        "Property_ID": "M-SHAKTI-1054",
        "Khasra_Ref": "155",
        "Tax_Owner": "UNKNOWN / DISPUTED",
        "Usage_Category": "MIX",
        "Assessment_Year": 2024
      },
      "geometry": {
        "type": "Polygon",
        "coordinates": [
          [
            [
              82.505,
              25.004
            ],
            [
              82.50590034890041,
              25.004
            ],
            [
              82.50595,
              25.00495
            ],
            [
              82.505,
              25.00496383931777
            ],
            [
              82.505,
              25.004
            ]
          ]
        ]
      }
    },
    {
      "type": "Feature",
      "properties": {
        "Property_ID": "M-SHAKTI-1055",
        "Khasra_Ref": null,
        "Tax_Owner": "Owner_156",
        "Usage_Category": "COM",
        "Assessment_Year": 2024
      },
      "geometry": {
        "type": "Polygon",
        "coordinates": [
          [
            [
              82.505,
              25.005
            ],
            [
              82.50595745387574,
              25.005
            ],
            [
              82.50595,
              25.00595
            ],
            [
              82.505,
              25.005937262999986
            ],
            [
              82.505,
              25.005
            ]
          ]
        ]
      }
    },
    {
      "type": "Feature",
      "properties": {
        "Property_ID": "M-SHAKTI-1056",
        "Khasra_Ref": "157",
        "Tax_Owner": "Owner_157",
        "Usage_Category": "RES",
        "Assessment_Year": 2024
      },
      "geometry": {
        "type": "Polygon",
        "coordinates": [
          [
            [
              82.505,
              25.006
            ],
            [
              82.50595578631817,
              25.006
            ],
            [
              82.50595,
              25.00695
            ],
            [
              82.505,
              25.00695245666885
            ],
            [
              82.505,
              25.006
            ]
          ]
        ]
      }
    },
    {
      "type": "Feature",
      "properties": {
        "Property_ID": "M-SHAKTI-1057",
        "Khasra_Ref": "158",
        "Tax_Owner": "UNKNOWN / DISPUTED",
        "Usage_Category": "COM",
        "Assessment_Year": 2024
      },
      "geometry": {
        "type": "Polygon",
        "coordinates": [
          [
            [
              82.505,
              25.007
            ],
            [
              82.50598005422735,
              25.007
            ],
            [
              82.50595,
              25.00795
            ],
            [
              82.505,
              25.00796369842222
            ],
            [
              82.505,
              25.007
            ]
          ]
        ]
      }
    },
    {
      "type": "Feature",
      "properties": {
        "Property_ID": "M-SHAKTI-1058",
        "Khasra_Ref": "159",
        "Tax_Owner": "Owner_159",
        "Usage_Category": "RES",
        "Assessment_Year": 2024
      },
      "geometry": {
        "type": "Polygon",
        "coordinates": [
          [
            [
              82.505,
              25.008
            ],
            [
              82.5059521116472,
              25.008
            ],
            [
              82.50595,
              25.00895
            ],
            [
              82.505,
              25.00894291440536
            ],
            [
              82.505,
              25.008
            ]
          ]
        ]
      }
    },
    {
      "type": "Feature",
      "properties": {
        "Property_ID": "M-SHAKTI-1059",
        "Khasra_Ref": "160",
        "Tax_Owner": "Owner_160",
        "Usage_Category": "MIX",
        "Assessment_Year": 2024
      },
      "geometry": {
        "type": "Polygon",
        "coordinates": [
          [
            [
              82.505,
              25.009
            ],
            [
              82.50598763917613,
              25.009
            ],
            [
              82.50595,
              25.00995
            ],
            [
              82.505,
              25.009987877983313
            ],
            [
              82.505,
              25.009
            ]
          ]
        ]
      }
    },
    {
      "type": "Feature",
      "properties": {
        "Property_ID": "M-SHAKTI-1060",
        "Khasra_Ref": null,
        "Tax_Owner": "UNKNOWN / DISPUTED",
        "Usage_Category": "MIX",
        "Assessment_Year": 2024
      },
      "geometry": {
        "type": "Polygon",
        "coordinates": [
          [
            [
              82.50596113110674,
              24.999960558029098
            ],
            [
              82.50701059122467,
              24.999960558029098
            ],
            [
              82.50698713110675,
              25.0009865580291
            ],
            [
              82.50596113110674,
              25.001025491243414
            ],
            [
              82.50596113110674,
              24.999960558029098
            ]
          ]
        ]
      }
    },
    {
      "type": "Feature",
      "properties": {
        "Property_ID": "M-SHAKTI-1061",
        "Khasra_Ref": "162",
        "Tax_Owner": "Owner_162",
        "Usage_Category": "RES",
        "Assessment_Year": 2024
      },
      "geometry": {
        "type": "Polygon",
        "coordinates": [
          [
            [
              82.506,
              25.001
            ],
            [
              82.50690477696595,
              25.001
            ],
            [
              82.50695,
              25.00195
            ],
            [
              82.506,
              25.001970185083316
            ],
            [
              82.506,
              25.001
            ]
          ]
        ]
      }
    },
    {
      "type": "Feature",
      "properties": {
        "Property_ID": "M-SHAKTI-1062",
        "Khasra_Ref": "163",
        "Tax_Owner": "Owner_163",
        "Usage_Category": "COM",
        "Assessment_Year": 2024
      },
      "geometry": {
        "type": "Polygon",
        "coordinates": [
          [
            [
              82.506,
              25.002
            ],
            [
              82.50696440133531,
              25.002
            ],
            [
              82.50695,
              25.00295
            ],
            [
              82.506,
              25.00294252586887
            ],
            [
              82.506,
              25.002
            ]
          ]
        ]
      }
    },
    {
      "type": "Feature",
      "properties": {
        "Property_ID": "M-SHAKTI-1063",
        "Khasra_Ref": "164",
        "Tax_Owner": "UNKNOWN / DISPUTED",
        "Usage_Category": "MIX",
        "Assessment_Year": 2024
      },
      "geometry": {
        "type": "Polygon",
        "coordinates": [
          [
            [
              82.506,
              25.003
            ],
            [
              82.50697794083916,
              25.003
            ],
            [
              82.50695,
              25.00395
            ],
            [
              82.506,
              25.00390875751948
            ],
            [
              82.506,
              25.003
            ]
          ]
        ]
      }
    },
    {
      "type": "Feature",
      "properties": {
        "Property_ID": "M-SHAKTI-1064",
        "Khasra_Ref": "165",
        "Tax_Owner": "Owner_165",
        "Usage_Category": "AGR",
        "Assessment_Year": 2024
      },
      "geometry": {
        "type": "Polygon",
        "coordinates": [
          [
            [
              82.506,
              25.004
            ],
            [
              82.50695420632027,
              25.004
            ],
            [
              82.50695,
              25.00495
            ],
            [
              82.506,
              25.004944544789197
            ],
            [
              82.506,
              25.004
            ]
          ]
        ]
      }
    },
    {
      "type": "Feature",
      "properties": {
        "Property_ID": "M-SHAKTI-1065",
        "Khasra_Ref": null,
        "Tax_Owner": "Owner_166",
        "Usage_Category": "AGR",
        "Assessment_Year": 2024
      },
      "geometry": {
        "type": "Polygon",
        "coordinates": [
          [
            [
              82.506,
              25.005
            ],
            [
              82.5069434676682,
              25.005
            ],
            [
              82.50695,
              25.00595
            ],
            [
              82.506,
              25.00592799143646
            ],
            [
              82.506,
              25.005
            ]
          ]
        ]
      }
    },
    {
      "type": "Feature",
      "properties": {
        "Property_ID": "M-SHAKTI-1066",
        "Khasra_Ref": "167",
        "Tax_Owner": "UNKNOWN / DISPUTED",
        "Usage_Category": "AGR",
        "Assessment_Year": 2024
      },
      "geometry": {
        "type": "Polygon",
        "coordinates": [
          [
            [
              82.506,
              25.006
            ],
            [
              82.50695405210315,
              25.006
            ],
            [
              82.50695,
              25.00695
            ],
            [
              82.506,
              25.006960208847982
            ],
            [
              82.506,
              25.006
            ]
          ]
        ]
      }
    },
    {
      "type": "Feature",
      "properties": {
        "Property_ID": "M-SHAKTI-1067",
        "Khasra_Ref": "168",
        "Tax_Owner": "Owner_168",
        "Usage_Category": "RES",
        "Assessment_Year": 2024
      },
      "geometry": {
        "type": "Polygon",
        "coordinates": [
          [
            [
              82.506,
              25.007
            ],
            [
              82.50692579758463,
              25.007
            ],
            [
              82.50695,
              25.00795
            ],
            [
              82.506,
              25.00796909837796
            ],
            [
              82.506,
              25.007
            ]
          ]
        ]
      }
    },
    {
      "type": "Feature",
      "properties": {
        "Property_ID": "M-SHAKTI-1068",
        "Khasra_Ref": "169",
        "Tax_Owner": "Owner_169",
        "Usage_Category": "COM",
        "Assessment_Year": 2024
      },
      "geometry": {
        "type": "Polygon",
        "coordinates": [
          [
            [
              82.506,
              25.008
            ],
            [
              82.50692092408984,
              25.008
            ],
            [
              82.50695,
              25.00895
            ],
            [
              82.506,
              25.008913066870708
            ],
            [
              82.506,
              25.008
            ]
          ]
        ]
      }
    },
    {
      "type": "Feature",
      "properties": {
        "Property_ID": "M-SHAKTI-1069",
        "Khasra_Ref": "170",
        "Tax_Owner": "UNKNOWN / DISPUTED",
        "Usage_Category": "AGR",
        "Assessment_Year": 2024
      },
      "geometry": {
        "type": "Polygon",
        "coordinates": [
          [
            [
              82.506,
              25.009
            ],
            [
              82.50694635351687,
              25.009
            ],
            [
              82.50695,
              25.00995
            ],
            [
              82.506,
              25.009970650521183
            ],
            [
              82.506,
              25.009
            ]
          ]
        ]
      }
    },
    {
      "type": "Feature",
      "properties": {
        "Property_ID": "M-SHAKTI-1070",
        "Khasra_Ref": null,
        "Tax_Owner": "Owner_171",
        "Usage_Category": "RES",
        "Assessment_Year": 2024
      },
      "geometry": {
        "type": "Polygon",
        "coordinates": [
          [
            [
              82.506962,
              24.999960138894345
            ],
            [
              82.50797357423522,
              24.999960138894345
            ],
            [
              82.50798800000001,
              25.000986138894348
            ],
            [
              82.506962,
              25.001036388747035
            ],
            [
              82.506962,
              24.999960138894345
            ]
          ]
        ]
      }
    },
    {
      "type": "Feature",
      "properties": {
        "Property_ID": "M-SHAKTI-1071",
        "Khasra_Ref": "172",
        "Tax_Owner": "Owner_172",
        "Usage_Category": "RES",
        "Assessment_Year": 2024
      },
      "geometry": {
        "type": "Polygon",
        "coordinates": [
          [
            [
              82.507,
              25.001
            ],
            [
              82.50795467990723,
              25.001
            ],
            [
              82.50795000000001,
              25.00195
            ],
            [
              82.507,
              25.001915281117864
            ],
            [
              82.507,
              25.001
            ]
          ]
        ]
      }
    },
    {
      "type": "Feature",
      "properties": {
        "Property_ID": "M-SHAKTI-1072",
        "Khasra_Ref": "173",
        "Tax_Owner": "UNKNOWN / DISPUTED",
        "Usage_Category": "RES",
        "Assessment_Year": 2024
      },
      "geometry": {
        "type": "Polygon",
        "coordinates": [
          [
            [
              82.507,
              25.002
            ],
            [
              82.5079563212424,
              25.002
            ],
            [
              82.50795000000001,
              25.00295
            ],
            [
              82.507,
              25.002990955190484
            ],
            [
              82.507,
              25.002
            ]
          ]
        ]
      }
    },
    {
      "type": "Feature",
      "properties": {
        "Property_ID": "M-SHAKTI-1073",
        "Khasra_Ref": "174",
        "Tax_Owner": "Owner_174",
        "Usage_Category": "AGR",
        "Assessment_Year": 2024
      },
      "geometry": {
        "type": "Polygon",
        "coordinates": [
          [
            [
              82.507,
              25.003
            ],
            [
              82.50792110745533,
              25.003
            ],
            [
              82.50795000000001,
              25.00395
            ],
            [
              82.507,
              25.00392712122945
            ],
            [
              82.507,
              25.003
            ]
          ]
        ]
      }
    },
    {
      "type": "Feature",
      "properties": {
        "Property_ID": "M-SHAKTI-1074",
        "Khasra_Ref": "175",
        "Tax_Owner": "Owner_175",
        "Usage_Category": "MIX",
        "Assessment_Year": 2024
      },
      "geometry": {
        "type": "Polygon",
        "coordinates": [
          [
            [
              82.507,
              25.004
            ],
            [
              82.50792458368652,
              25.004
            ],
            [
              82.50795000000001,
              25.00495
            ],
            [
              82.507,
              25.004985893428138
            ],
            [
              82.507,
              25.004
            ]
          ]
        ]
      }
    },
    {
      "type": "Feature",
      "properties": {
        "Property_ID": "M-SHAKTI-1075",
        "Khasra_Ref": null,
        "Tax_Owner": "UNKNOWN / DISPUTED",
        "Usage_Category": "COM",
        "Assessment_Year": 2024
      },
      "geometry": {
        "type": "Polygon",
        "coordinates": [
          [
            [
              82.507,
              25.005
            ],
            [
              82.50792113150948,
              25.005
            ],
            [
              82.50795000000001,
              25.00595
            ],
            [
              82.507,
              25.005941909544426
            ],
            [
              82.507,
              25.005
            ]
          ]
        ]
      }
    },
    {
      "type": "Feature",
      "properties": {
        "Property_ID": "M-SHAKTI-1076",
        "Khasra_Ref": "177",
        "Tax_Owner": "Owner_177",
        "Usage_Category": "COM",
        "Assessment_Year": 2024
      },
      "geometry": {
        "type": "Polygon",
        "coordinates": [
          [
            [
              82.507,
              25.006
            ],
            [
              82.50795444037968,
              25.006
            ],
            [
              82.50795000000001,
              25.00695
            ],
            [
              82.507,
              25.006921329978578
            ],
            [
              82.507,
              25.006
            ]
          ]
        ]
      }
    },
    {
      "type": "Feature",
      "properties": {
        "Property_ID": "M-SHAKTI-1077",
        "Khasra_Ref": "178",
        "Tax_Owner": "Owner_178",
        "Usage_Category": "AGR",
        "Assessment_Year": 2024
      },
      "geometry": {
        "type": "Polygon",
        "coordinates": [
          [
            [
              82.507,
              25.007
            ],
            [
              82.5079174461773,
              25.007
            ],
            [
              82.50795000000001,
              25.00795
            ],
            [
              82.507,
              25.00790566904995
            ],
            [
              82.507,
              25.007
            ]
          ]
        ]
      }
    },
    {
      "type": "Feature",
      "properties": {
        "Property_ID": "M-SHAKTI-1078",
        "Khasra_Ref": "179",
        "Tax_Owner": "UNKNOWN / DISPUTED",
        "Usage_Category": "MIX",
        "Assessment_Year": 2024
      },
      "geometry": {
        "type": "Polygon",
        "coordinates": [
          [
            [
              82.507,
              25.008
            ],
            [
              82.50791858143596,
              25.008
            ],
            [
              82.50795000000001,
              25.00895
            ],
            [
              82.507,
              25.008967377134038
            ],
            [
              82.507,
              25.008
            ]
          ]
        ]
      }
    },
    {
      "type": "Feature",
      "properties": {
        "Property_ID": "M-SHAKTI-1079",
        "Khasra_Ref": "180",
        "Tax_Owner": "Owner_180",
        "Usage_Category": "AGR",
        "Assessment_Year": 2024
      },
      "geometry": {
        "type": "Polygon",
        "coordinates": [
          [
            [
              82.507,
              25.009
            ],
            [
              82.50794419961605,
              25.009
            ],
            [
              82.50795000000001,
              25.00995
            ],
            [
              82.507,
              25.009935609923517
            ],
            [
              82.507,
              25.009
            ]
          ]
        ]
      }
    },
    {
      "type": "Feature",
      "properties": {
        "Property_ID": "M-SHAKTI-1080",
        "Khasra_Ref": null,
        "Tax_Owner": "Owner_181",
        "Usage_Category": "MIX",
        "Assessment_Year": 2024
      },
      "geometry": {
        "type": "Polygon",
        "coordinates": [
          [
            [
              82.50796054862576,
              24.999961999999996
            ],
            [
              82.50902573573009,
              24.999961999999996
            ],
            [
              82.50898654862577,
              25.000988
            ],
            [
              82.50796054862576,
              25.000936071951152
            ],
            [
              82.50796054862576,
              24.999961999999996
            ]
          ]
        ]
      }
    },
    {
      "type": "Feature",
      "properties": {
        "Property_ID": "M-SHAKTI-1081",
        "Khasra_Ref": "182",
        "Tax_Owner": "UNKNOWN / DISPUTED",
        "Usage_Category": "MIX",
        "Assessment_Year": 2024
      },
      "geometry": {
        "type": "Polygon",
        "coordinates": [
          [
            [
              82.508,
              25.001
            ],
            [
              82.50891856799205,
              25.001
            ],
            [
              82.50895,
              25.00195
            ],
            [
              82.508,
              25.001985918395935
            ],
            [
              82.508,
              25.001
            ]
          ]
        ]
      }
    },
    {
      "type": "Feature",
      "properties": {
        "Property_ID": "M-SHAKTI-1082",
        "Khasra_Ref": "183",
        "Tax_Owner": "Owner_183",
        "Usage_Category": "RES",
        "Assessment_Year": 2024
      },
      "geometry": {
        "type": "Polygon",
        "coordinates": [
          [
            [
              82.508,
              25.002
            ],
            [
              82.50892493107581,
              25.002
            ],
            [
              82.50895,
              25.00295
            ],
            [
              82.508,
              25.002928347091814
            ],
            [
              82.508,
              25.002
            ]
          ]
        ]
      }
    },
    {
      "type": "Feature",
      "properties": {
        "Property_ID": "M-SHAKTI-1083",
        "Khasra_Ref": "184",
        "Tax_Owner": "Owner_184",
        "Usage_Category": "RES",
        "Assessment_Year": 2024
      },
      "geometry": {
        "type": "Polygon",
        "coordinates": [
          [
            [
              82.508,
              25.003
            ],
            [
              82.50890080813696,
              25.003
            ],
            [
              82.50895,
              25.00395
            ],
            [
              82.508,
              25.003991118638666
            ],
            [
              82.508,
              25.003
            ]
          ]
        ]
      }
    },
    {
      "type": "Feature",
      "properties": {
        "Property_ID": "M-SHAKTI-1084",
        "Khasra_Ref": "185",
        "Tax_Owner": "UNKNOWN / DISPUTED",
        "Usage_Category": "AGR",
        "Assessment_Year": 2024
      },
      "geometry": {
        "type": "Polygon",
        "coordinates": [
          [
            [
              82.508,
              25.004
            ],
            [
              82.50894775246763,
              25.004
            ],
            [
              82.50895,
              25.00495
            ],
            [
              82.508,
              25.00498143076524
            ],
            [
              82.508,
              25.004
            ]
          ]
        ]
      }
    },
    {
      "type": "Feature",
      "properties": {
        "Property_ID": "M-SHAKTI-1085",
        "Khasra_Ref": null,
        "Tax_Owner": "Owner_186",
        "Usage_Category": "COM",
        "Assessment_Year": 2024
      },
      "geometry": {
        "type": "Polygon",
        "coordinates": [
          [
            [
              82.508,
              25.005
            ],
            [
              82.508959993405,
              25.005
            ],
            [
              82.50895,
              25.00595
            ],
            [
              82.508,
              25.005982104962964
            ],
            [
              82.508,
              25.005
            ]
          ]
        ]
      }
    },
    {
      "type": "Feature",
      "properties": {
        "Property_ID": "M-SHAKTI-1086",
        "Khasra_Ref": "187",
        "Tax_Owner": "Owner_187",
        "Usage_Category": "AGR",
        "Assessment_Year": 2024
      },
      "geometry": {
        "type": "Polygon",
        "coordinates": [
          [
            [
              82.508,
              25.006
            ],
            [
              82.50894049845276,
              25.006
            ],
            [
              82.50895,
              25.00695
            ],
            [
              82.508,
              25.006952847182863
            ],
            [
              82.508,
              25.006
            ]
          ]
        ]
      }
    },
    {
      "type": "Feature",
      "properties": {
        "Property_ID": "M-SHAKTI-1087",
        "Khasra_Ref": "188",
        "Tax_Owner": "UNKNOWN / DISPUTED",
        "Usage_Category": "RES",
        "Assessment_Year": 2024
      },
      "geometry": {
        "type": "Polygon",
        "coordinates": [
          [
            [
              82.508,
              25.007
            ],
            [
              82.50890177424749,
              25.007
            ],
            [
              82.50895,
              25.00795
            ],
            [
              82.508,
              25.00791002425974
            ],
            [
              82.508,
              25.007
            ]
          ]
        ]
      }
    },
    {
      "type": "Feature",
      "properties": {
        "Property_ID": "M-SHAKTI-1088",
        "Khasra_Ref": "189",
        "Tax_Owner": "Owner_189",
        "Usage_Category": "RES",
        "Assessment_Year": 2024
      },
      "geometry": {
        "type": "Polygon",
        "coordinates": [
          [
            [
              82.508,
              25.008
            ],
            [
              82.50897430564702,
              25.008
            ],
            [
              82.50895,
              25.00895
            ],
            [
              82.508,
              25.008952652975864
            ],
            [
              82.508,
              25.008
            ]
          ]
        ]
      }
    },
    {
      "type": "Feature",
      "properties": {
        "Property_ID": "M-SHAKTI-1089",
        "Khasra_Ref": "190",
        "Tax_Owner": "Owner_190",
        "Usage_Category": "RES",
        "Assessment_Year": 2024
      },
      "geometry": {
        "type": "Polygon",
        "coordinates": [
          [
            [
              82.508,
              25.009
            ],
            [
              82.50893246516746,
              25.009
            ],
            [
              82.50895,
              25.00995
            ],
            [
              82.508,
              25.00997820180007
            ],
            [
              82.508,
              25.009
            ]
          ]
        ]
      }
    },
    {
      "type": "Feature",
      "properties": {
        "Property_ID": "M-SHAKTI-1090",
        "Khasra_Ref": null,
        "Tax_Owner": "UNKNOWN / DISPUTED",
        "Usage_Category": "RES",
        "Assessment_Year": 2024
      },
      "geometry": {
        "type": "Polygon",
        "coordinates": [
          [
            [
              82.508962,
              24.999961999999996
            ],
            [
              82.50998347162692,
              24.999961999999996
            ],
            [
              82.50998799999999,
              25.000988
            ],
            [
              82.508962,
              25.000954876693314
            ],
            [
              82.508962,
              24.999961999999996
            ]
          ]
        ]
      }
    },
    {
      "type": "Feature",
      "properties": {
        "Property_ID": "M-SHAKTI-1091",
        "Khasra_Ref": "192",
        "Tax_Owner": "Owner_192",
        "Usage_Category": "COM",
        "Assessment_Year": 2024
      },
      "geometry": {
        "type": "Polygon",
        "coordinates": [
          [
            [
              82.509,
              25.001
            ],
            [
              82.50994339156736,
              25.001
            ],
            [
              82.50995,
              25.00195
            ],
            [
              82.509,
              25.00197521557073
            ],
            [
              82.509,
              25.001
            ]
          ]
        ]
      }
    },
    {
      "type": "Feature",
      "properties": {
        "Property_ID": "M-SHAKTI-1092",
        "Khasra_Ref": "193",
        "Tax_Owner": "Owner_193",
        "Usage_Category": "COM",
        "Assessment_Year": 2024
      },
      "geometry": {
        "type": "Polygon",
        "coordinates": [
          [
            [
              82.509,
              25.002
            ],
            [
              82.50997706271666,
              25.002
            ],
            [
              82.50995,
              25.00295
            ],
            [
              82.509,
              25.002960014851215
            ],
            [
              82.509,
              25.002
            ]
          ]
        ]
      }
    },
    {
      "type": "Feature",
      "properties": {
        "Property_ID": "M-SHAKTI-1093",
        "Khasra_Ref": "194",
        "Tax_Owner": "UNKNOWN / DISPUTED",
        "Usage_Category": "AGR",
        "Assessment_Year": 2024
      },
      "geometry": {
        "type": "Polygon",
        "coordinates": [
          [
            [
              82.509,
              25.003
            ],
            [
              82.50994101545727,
              25.003
            ],
            [
              82.50995,
              25.00395
            ],
            [
              82.509,
              25.003933847003065
            ],
            [
              82.509,
              25.003
            ]
          ]
        ]
      }
    },
    {
      "type": "Feature",
      "properties": {
        "Property_ID": "M-SHAKTI-1094",
        "Khasra_Ref": "195",
        "Tax_Owner": "Owner_195",
        "Usage_Category": "RES",
        "Assessment_Year": 2024
      },
      "geometry": {
        "type": "Polygon",
        "coordinates": [
          [
            [
              82.509,
              25.004
            ],
            [
              82.50994360492354,
              25.004
            ],
            [
              82.50995,
              25.00495
            ],
            [
              82.509,
              25.004966054160697
            ],
            [
              82.509,
              25.004
            ]
          ]
        ]
      }
    },
    {
      "type": "Feature",
      "properties": {
        "Property_ID": "M-SHAKTI-1095",
        "Khasra_Ref": null,
        "Tax_Owner": "Owner_196",
        "Usage_Category": "AGR",
        "Assessment_Year": 2024
      },
      "geometry": {
        "type": "Polygon",
        "coordinates": [
          [
            [
              82.509,
              25.005
            ],
            [
              82.5099246435712,
              25.005
            ],
            [
              82.50995,
              25.00595
            ],
            [
              82.509,
              25.005925809070316
            ],
            [
              82.509,
              25.005
            ]
          ]
        ]
      }
    },
    {
      "type": "Feature",
      "properties": {
        "Property_ID": "M-SHAKTI-1096",
        "Khasra_Ref": "197",
        "Tax_Owner": "UNKNOWN / DISPUTED",
        "Usage_Category": "COM",
        "Assessment_Year": 2024
      },
      "geometry": {
        "type": "Polygon",
        "coordinates": [
          [
            [
              82.509,
              25.006
            ],
            [
              82.5099492913831,
              25.006
            ],
            [
              82.50995,
              25.00695
            ],
            [
              82.509,
              25.00698491049047
            ],
            [
              82.509,
              25.006
            ]
          ]
        ]
      }
    },
    {
      "type": "Feature",
      "properties": {
        "Property_ID": "M-SHAKTI-1097",
        "Khasra_Ref": "198",
        "Tax_Owner": "Owner_198",
        "Usage_Category": "MIX",
        "Assessment_Year": 2024
      },
      "geometry": {
        "type": "Polygon",
        "coordinates": [
          [
            [
              82.509,
              25.007
            ],
            [
              82.50996747996116,
              25.007
            ],
            [
              82.50995,
              25.00795
            ],
            [
              82.509,
              25.007963797188186
            ],
            [
              82.509,
              25.007
            ]
          ]
        ]
      }
    },
    {
      "type": "Feature",
      "properties": {
        "Property_ID": "M-SHAKTI-1098",
        "Khasra_Ref": "199",
        "Tax_Owner": "Owner_199",
        "Usage_Category": "MIX",
        "Assessment_Year": 2024
      },
      "geometry": {
        "type": "Polygon",
        "coordinates": [
          [
            [
              82.509,
              25.008
            ],
            [
              82.50994248080171,
              25.008
            ],
            [
              82.50995,
              25.00895
            ],
            [
              82.509,
              25.008986423386514
            ],
            [
              82.509,
              25.008
            ]
          ]
        ]
      }
    },
    {
      "type": "Feature",
      "properties": {
        "Property_ID": "M-SHAKTI-1099",
        "Khasra_Ref": "200",
        "Tax_Owner": "UNKNOWN / DISPUTED",
        "Usage_Category": "COM",
        "Assessment_Year": 2024
      },
      "geometry": {
        "type": "Polygon",
        "coordinates": [
          [
            [
              82.509,
              25.009
            ],
            [
              82.50998235283619,
              25.009
            ],
            [
              82.50995,
              25.00995
            ],
            [
              82.509,
              25.00999971298851
            ],
            [
              82.509,
              25.009
            ]
          ]
        ]
      }
    }
  ]
}