{
  "type": "FeatureCollection",
  "crs": {
    "type": "name",
    "properties": {
      "name": "urn:ogc:def:crs:OGC:1.3:CRS84"
    }
  },
  "features": [
    {
      "type": "Feature",
      "properties": {
        "Khasra_No": "101",
        "Owner_Name": "Owner_101",
        "Land_Type": "Mixed Use",
        "Recorded_Area": 8.79,
        "Survey_Year": 2012
      },
      "geometry": {
        "type": "Polygon",
        "coordinates": [
          [
            [
              82.50003,
              24.99998
            ],
            [
              82.50093345711912,
              24.99998
            ],
            [
              82.50098,
              25.00093
            ],
            [
              82.50003,
              25.000927569240787
            ],
            [
              82.50003,
              24.99998
            ]
          ]
        ]
      }
    },
    {
      "type": "Feature",
      "properties": {
        "Khasra_No": "102",
        "Owner_Name": "Owner_102",
        "Land_Type": "Commercial",
        "Recorded_Area": 9.27,
        "Survey_Year": 2012
      },
      "geometry": {
        "type": "Polygon",
        "coordinates": [
          [
            [
              82.50003,
              25.000980000000002
            ],
            [
              82.50101496694458,
              25.000980000000002
            ],
            [
              82.50098,
              25.00193
            ],
            [
              82.50003,
              25.00194620550613
            ],
            [
              82.50003,
              25.000980000000002
            ]
          ]
        ]
      }
    },
    {
      "type": "Feature",
      "properties": {
        "Khasra_No": "103",
        "Owner_Name": "Owner_103",
        "Land_Type": "Residential",
        "Recorded_Area": 8.79,
        "Survey_Year": 2012
      },
      "geometry": {
        "type": "Polygon",
        "coordinates": [
          [
            [
              82.50003,
              25.00198
            ],
            [
              82.5009513267826,
              25.00198
            ],
            [
              82.50098,
              25.00293
            ],
            [
              82.50003,
              25.002909671405458
            ],
            [
              82.50003,
              25.00198
            ]
          ]
        ]
      }
    },
    {
      "type": "Feature",
      "properties": {
        "Khasra_No": "104",
        "Owner_Name": "Owner_104",
        "Land_Type": "Mixed Use",
        "Recorded_Area": 9.08,
        "Survey_Year": 2012
      },
      "geometry": {
        "type": "Polygon",
        "coordinates": [
          [
            [
              82.50003,
              25.00298
            ],
            [
              82.50097350593346,
              25.00298
            ],
            [
              82.50098,
              25.00393
            ],
            [
              82.50003,
              25.003947108866985
            ],
            [
              82.50003,
              25.00298
            ]
          ]
        ]
      }
    },
    {
      "type": "Feature",
      "properties": {
        "Khasra_No": "105",
        "Owner_Name": "Owner_105",
        "Land_Type": "Agricultural",
        "Recorded_Area": 9.22,
        "Survey_Year": 2012
      },
      "geometry": {
        "type": "Polygon",
        "coordinates": [
          [
            [
              82.50003,
              25.003980000000002
            ],
            [
              82.50101413100234,
              25.003980000000002
            ],
            [
              82.50098,
              25.00493
            ],
            [
              82.50003,
              25.004937363738012
            ],
            [
              82.50003,
              25.003980000000002
            ]
          ]
        ]
      }
    },
    {
      "type": "Feature",
      "properties": {
        "Khasra_No": "106",
        "Owner_Name": "Owner_106",
        "Land_Type": "Commercial",
        "Recorded_Area": 9.2,
        "Survey_Year": 2012
      },
      "geometry": {
        "type": "Polygon",
        "coordinates": [
          [
            [
              82.50003,
              25.00498
            ],
            [
              82.50100607831529,
              25.00498
            ],
            [
              82.50098,
              25.00593
            ],
            [
              82.50003,
              25.0059397787062
            ],
            [
              82.50003,
              25.00498
            ]
          ]
        ]
      }
    },
    {
      "type": "Feature",
      "properties": {
        "Khasra_No": "107",
        "Owner_Name": "Owner_107",
        "Land_Type": "Commercial",
        "Recorded_Area": 9.12,
        "Survey_Year": 2012
      },
      "geometry": {
        "type": "Polygon",
        "coordinates": [
          [
            [
              82.50003,
              25.00598
            ],
            [
              82.50098378228012,
              25.00598
            ],
            [
              82.50098,
              25.00693
            ],
            [
              82.50003,
              25.00694560190354
            ],
            [
              82.50003,
              25.00598
            ]
          ]
        ]
      }
    },
    {
      "type": "Feature",
      "properties": {
        "Khasra_No": "108",
        "Owner_Name": "Owner_108",
        "Land_Type": "Residential",
        "Recorded_Area": 8.85,
        "Survey_Year": 2012
      },
      "geometry": {
        "type": "Polygon",
        "coordinates": [
          [
            [
              82.50003,
              25.006980000000002
            ],
            [
              82.5009448342227,
              25.006980000000002
            ],
            [
              82.50098,
              25.00793
            ],
            [
              82.50003,
              25.00792836621001
            ],
            [
              82.50003,
              25.006980000000002
            ]
          ]
        ]
      }
    },
    {
      "type": "Feature",
      "properties": {
        "Khasra_No": "109",
        "Owner_Name": "Owner_109",
        "Land_Type": "Mixed Use",
        "Recorded_Area": 9.23,
        "Survey_Year": 2012
      },
      "geometry": {
        "type": "Polygon",
        "coordinates": [
          [
            [
              82.50003,
              25.00798
            ],
            [
              82.50097735305565,
              25.00798
            ],
            [
              82.50098,
              25.00893
            ],
            [
              82.50003,
              25.008976113423667
            ],
            [
              82.50003,
              25.00798
            ]
          ]
        ]
      }
    },
    {
      "type": "Feature",
      "properties": {
        "Khasra_No": "110",
        "Owner_Name": "Owner_110",
        "Land_Type": "Residential",
        "Recorded_Area": 9.24,
        "Survey_Year": 2012
      },
      "geometry": {
        "type": "Polygon",
        "coordinates": [
          [
            [
              82.50003,
              25.00898
            ],
            [
              82.50099670534196,
              25.00898
            ],
            [
              82.50098,
              25.00993
            ],
            [
              82.50003,
              25.009959206020902
            ],
            [
              82.50003,
              25.00898
            ]
          ]
        ]
      }
    },
    {
      "type": "Feature",
      "properties": {
        "Khasra_No": "111",
        "Owner_Name": "Owner_111",
        "Land_Type": "Agricultural",
        "Recorded_Area": 9.08,
        "Survey_Year": 2012
      },
      "geometry": {
        "type": "Polygon",
        "coordinates": [
          [
            [
              82.50103,
              24.99998
            ],
            [
              82.50201200608907,
              24.99998
            ],
            [
              82.50198,
              25.00093
            ],
            [
              82.50103,
              25.000910113042767
            ],
            [
              82.50103,
              24.99998
            ]
          ]
        ]
      }
    },
    {
      "type": "Feature",
      "properties": {
        "Khasra_No": "112",
        "Owner_Name": "Owner_112",
        "Land_Type": "Agricultural",
        "Recorded_Area": 9.27,
        "Survey_Year": 2012
      },
      "geometry": {
        "type": "Polygon",
        "coordinates": [
          [
            [
              82.50103,
              25.000980000000002
            ],
            [
              82.5020210781946,
              25.000980000000002
            ],
            [
              82.50198,
              25.00193
            ],
            [
              82.50103,
              25.001941406953566
            ],
            [
              82.50103,
              25.000980000000002
            ]
          ]
        ]
      }
    },
    {
      "type": "Feature",
      "properties": {
        "Khasra_No": "113",
        "Owner_Name": "Owner_113",
        "Land_Type": "Mixed Use",
        "Recorded_Area": 8.71,
        "Survey_Year": 2012
      },
      "geometry": {
        "type": "Polygon",
        "coordinates": [
          [
            [
              82.50103,
              25.00198
            ],
            [
              82.50195155436238,
              25.00198
            ],
            [
              82.50198,
              25.00293
            ],
            [
              82.50103,
              25.002891592971018
            ],
            [
              82.50103,
              25.00198
            ]
          ]
        ]
      }
    },
    {
      "type": "Feature",
      "properties": {
        "Khasra_No": "114",
        "Owner_Name": "Owner_114",
        "Land_Type": "Commercial",
        "Recorded_Area": 9.06,
        "Survey_Year": 2012
      },
      "geometry": {
        "type": "Polygon",
        "coordinates": [
          [
            [
              82.50103,
              25.00298
            ],
            [
              82.50195418604562,
              25.00298
            ],
            [
              82.50198,
              25.00393
            ],
            [
              82.50103,
              25.0039627779592
            ],
            [
              82.50103,
              25.00298
            ]
          ]
        ]
      }
    },
    {
      "type": "Feature",
      "properties": {
        "Khasra_No": "115",
        "Owner_Name": "Owner_115",
        "Land_Type": "Commercial",
        "Recorded_Area": 8.86,
        "Survey_Year": 2012
      },
      "geometry": {
        "type": "Polygon",
        "coordinates": [
          [
            [
              82.50103,
              25.003980000000002
            ],
            [
              82.50195725546469,
              25.003980000000002
            ],
            [
              82.50198,
              25.00493
            ],
            [
              82.50103,
              25.00491818339309
            ],
            [
              82.50103,
              25.003980000000002
            ]
          ]
        ]
      }
    },
    {
      "type": "Feature",
      "properties": {
        "Khasra_No": "116",
        "Owner_Name": "Owner_116",
        "Land_Type": "Mixed Use",
        "Recorded_Area": 8.9,
        "Survey_Year": 2012
      },
      "geometry": {
        "type": "Polygon",
        "coordinates": [
          [
            [
              82.50103,
              25.00498
            ],
            [
              82.50196402465129,
              25.00498
            ],
            [
              82.50198,
              25.00593
            ],
            [
              82.50103,
              25.00591997774424
            ],
            [
              82.50103,
              25.00498
            ]
          ]
        ]
      }
    },
    {
      "type": "Feature",
      "properties": {
        "Khasra_No": "117",
        "Owner_Name": "Owner_117",
        "Land_Type": "Agricultural",
        "Recorded_Area": 9.06,
        "Survey_Year": 2012
      },
      "geometry": {
        "type": "Polygon",
        "coordinates": [
          [
            [
              82.50103,
              25.00598
            ],
            [
              82.50202793426311,
              25.00598
            ],
            [
              82.50198,
              25.00693
            ],
            [
              82.50103,
              25.00688958042676
            ],
            [
              82.50103,
              25.00598
            ]
          ]
        ]
      }
    },
    {
      "type": "Feature",
      "properties": {
        "Khasra_No": "118",
        "Owner_Name": "Owner_118",
        "Land_Type": "Mixed Use",
        "Recorded_Area": 9.2,
        "Survey_Year": 2012
      },
      "geometry": {
        "type": "Polygon",
        "coordinates": [
          [
            [
              82.50103,
              25.006980000000002
            ],
            [
              82.50199076973408,
              25.006980000000002
            ],
            [
              82.50198,
              25.00793
            ],
            [
              82.50103,
              25.007956994817427
            ],
            [
              82.50103,
              25.006980000000002
            ]
          ]
        ]
      }
    },
    {
      "type": "Feature",
      "properties": {
        "Khasra_No": "119",
        "Owner_Name": "Owner_119",
        "Land_Type": "Commercial",
        "Recorded_Area": 9.15,
        "Survey_Year": 2012
      },
      "geometry": {
        "type": "Polygon",
        "coordinates": [
          [
            [
              82.50103,
              25.00798
            ],
            [
              82.50201747508262,
              25.00798
            ],
            [
              82.50198,
              25.00893
            ],
            [
              82.50103,
              25.00891967943064
            ],
            [
              82.50103,
              25.00798
            ]
          ]
        ]
      }
    },
    {
      "type": "Feature",
      "properties": {
        "Khasra_No": "120",
        "Owner_Name": "Owner_120",
        "Land_Type": "Mixed Use",
        "Recorded_Area": 8.78,
        "Survey_Year": 2012
      },
      "geometry": {
        "type": "Polygon",
        "coordinates": [
          [
            [
              82.50103,
              25.00898
            ],
            [
              82.5019414553734,
              25.00898
            ],
            [
              82.50198,
              25.00993
            ],
            [
              82.50103,
              25.009917546622916
            ],
            [
              82.50103,
              25.00898
            ]
          ]
        ]
      }
    },
    {
      "type": "Feature",
      "properties": {
        "Khasra_No": "121",
        "Owner_Name": "Owner_121",
        "Land_Type": "Residential",
        "Recorded_Area": 9.09,
        "Survey_Year": 2012
      },
      "geometry": {
        "type": "Polygon",
        "coordinates": [
          [
            [
              82.50202999999999,
              24.99998
            ],
            [
              82.50295174062128,
              24.99998
            ],
            [
              82.50298,
              25.00093
            ],
            [
              82.50202999999999,
              25.000972148360216
            ],
            [
              82.50202999999999,
              24.99998
            ]
          ]
        ]
      }
    },
    {
      "type": "Feature",
      "properties": {
        "Khasra_No": "122",
        "Owner_Name": "Owner_122",
        "Land_Type": "Agricultural",
        "Recorded_Area": 9.05,
        "Survey_Year": 2012
      },
      "geometry": {
        "type": "Polygon",
        "coordinates": [
          [
            [
              82.50202999999999,
              25.000980000000002
            ],
            [
              82.50296732686913,
              25.000980000000002
            ],
            [
              82.50298,
              25.00193
            ],
            [
              82.50202999999999,
              25.001948818377365
            ],
            [
              82.50202999999999,
              25.000980000000002
            ]
          ]
        ]
      }
    },
    {
      "type": "Feature",
      "properties": {
        "Khasra_No": "123",
        "Owner_Name": "Owner_123",
        "Land_Type": "Mixed Use",
        "Recorded_Area": 8.87,
        "Survey_Year": 2012
      },
      "geometry": {
        "type": "Polygon",
        "coordinates": [
          [
            [
              82.50202999999999,
              25.00198
            ],
            [
              82.5029960870747,
              25.00198
            ],
            [
              82.50298,
              25.00293
            ],
            [
              82.50202999999999,
              25.00288076202484
            ],
            [
              82.50202999999999,
              25.00198
            ]
          ]
        ]
      }
    },
    {
      "type": "Feature",
      "properties": {
        "Khasra_No": "124",
        "Owner_Name": "Owner_124",
        "Land_Type": "Mixed Use",
        "Recorded_Area": 9.28,
        "Survey_Year": 2012
      },
      "geometry": {
        "type": "Polygon",
        "coordinates": [
          [
            [
              82.50202999999999,
              25.00298
            ],
            [
              82.50298538061976,
              25.00298
            ],
            [
              82.50298,
              25.00393
            ],
            [
              82.50202999999999,
              25.00397764092401
            ],
            [
              82.50202999999999,
              25.00298
            ]
          ]
        ]
      }
    },
    {
      "type": "Feature",
      "properties": {
        "Khasra_No": "125",
        "Owner_Name": "Owner_125",
        "Land_Type": "Residential",
        "Recorded_Area": 9.13,
        "Survey_Year": 2012
      },
      "geometry": {
        "type": "Polygon",
        "coordinates": [
          [
            [
              82.50202999999999,
              25.003980000000002
            ],
            [
              82.5029857069573,
              25.003980000000002
            ],
            [
              82.50298,
              25.00493
            ],
            [
              82.50202999999999,
              25.004947139455364
            ],
            [
              82.50202999999999,
              25.003980000000002
            ]
          ]
        ]
      }
    },
    {
      "type": "Feature",
      "properties": {
        "Khasra_No": "126",
        "Owner_Name": "Owner_126",
        "Land_Type": "Agricultural",
        "Recorded_Area": 9.16,
        "Survey_Year": 2012
      },
      "geometry": {
        "type": "Polygon",
        "coordinates": [
          [
            [
              82.50202999999999,
              25.00498
            ],
            [
              82.50298665800058,
              25.00498
            ],
            [
              82.50298,
              25.00593
            ],
            [
              82.50202999999999,
              25.005950806915745
            ],
            [
              82.50202999999999,
              25.00498
            ]
          ]
        ]
      }
    },
    {
      "type": "Feature",
      "properties": {
        "Khasra_No": "127",
        "Owner_Name": "Owner_127",
        "Land_Type": "Agricultural",
        "Recorded_Area": 9.19,
        "Survey_Year": 2012
      },
      "geometry": {
        "type": "Polygon",
        "coordinates": [
          [
            [
              82.50202999999999,
              25.00598
            ],
            [
              82.50301289109846,
              25.00598
            ],
            [
              82.50298,
              25.00693
            ],
            [
              82.50202999999999,
              25.00693276229404
            ],
            [
              82.50202999999999,
              25.00598
            ]
          ]
        ]
      }
    },
    {
      "type": "Feature",
      "properties": {
        "Khasra_No": "128",
        "Owner_Name": "Owner_128",
        "Land_Type": "Mixed Use",
        "Recorded_Area": 9.38,
        "Survey_Year": 2012
      },
      "geometry": {
        "type": "Polygon",
        "coordinates": [
          [
            [
              82.50202999999999,
              25.006980000000002
            ],
            [
              82.50302435252162,
              25.006980000000002
            ],
            [
              82.50298,
              25.00793
            ],
            [
              82.50202999999999,
              25.007961196721276
            ],
            [
              82.50202999999999,
              25.006980000000002
            ]
          ]
        ]
      }
    },
    {
      "type": "Feature",
      "properties": {
        "Khasra_No": "129",
        "Owner_Name": "Owner_129",
        "Land_Type": "Commercial",
        "Recorded_Area": 9.04,
        "Survey_Year": 2012
      },
      "geometry": {
        "type": "Polygon",
        "coordinates": [
          [
            [
              82.50202999999999,
              25.00798
            ],
            [
              82.50297325476512,
              25.00798
            ],
            [
              82.50298,
              25.00893
            ],
            [
              82.50202999999999,
              25.008940456429503
            ],
            [
              82.50202999999999,
              25.00798
            ]
          ]
        ]
      }
    },
    {
      "type": "Feature",
      "properties": {
        "Khasra_No": "130",
        "Owner_Name": "Owner_130",
        "Land_Type": "Commercial",
        "Recorded_Area": 9.21,
        "Survey_Year": 2012
      },
      "geometry": {
        "type": "Polygon",
        "coordinates": [
          [
            [
              82.50202999999999,
              25.00898
            ],
            [
              82.50302991907171,
              25.00898
            ],
            [
              82.50298,
              25.00993
            ],
            [
              82.50202999999999,
              25.00991996664895
            ],
            [
              82.50202999999999,
              25.00898
            ]
          ]
        ]
      }
    },
    {
      "type": "Feature",
      "properties": {
        "Khasra_No": "131",
        "Owner_Name": "Owner_131",
        "Land_Type": "Agricultural",
        "Recorded_Area": 9.17,
        "Survey_Year": 2012
      },
      "geometry": {
        "type": "Polygon",
        "coordinates": [
          [
            [
              82.50303,
              24.99998
            ],
            [
              82.50396757634672,
              24.99998
            ],
            [
              82.50398,
              25.00093
            ],
            [
              82.50303,
              25.00097344447978
            ],
            [
              82.50303,
              24.99998
            ]
          ]
        ]
      }
    },
    {
      "type": "Feature",
      "properties": {
        "Khasra_No": "132",
        "Owner_Name": "Owner_132",
        "Land_Type": "Residential",
        "Recorded_Area": 8.72,
        "Survey_Year": 2012
      },
      "geometry": {
        "type": "Polygon",
        "coordinates": [
          [
            [
              82.50303,
              25.000980000000002
            ],
            [
              82.50394159504968,
              25.000980000000002
            ],
            [
              82.50398,
              25.00193
            ],
            [
              82.50303,
              25.001904505161257
            ],
            [
              82.50303,
              25.000980000000002
            ]
          ]
        ]
      }
    },
    {
      "type": "Feature",
      "properties": {
        "Khasra_No": "133",
        "Owner_Name": "Owner_133",
        "Land_Type": "Commercial",
        "Recorded_Area": 9.17,
        "Survey_Year": 2012
      },
      "geometry": {
        "type": "Polygon",
        "coordinates": [
          [
            [
              82.50303,
              25.00198
            ],
            [
              82.50399082387376,
              25.00198
            ],
            [
              82.50398,
              25.00293
            ],
            [
              82.50303,
              25.00295022122418
            ],
            [
              82.50303,
              25.00198
            ]
          ]
        ]
      }
    },
    {
      "type": "Feature",
      "properties": {
        "Khasra_No": "134",
        "Owner_Name": "Owner_134",
        "Land_Type": "Mixed Use",
        "Recorded_Area": 9.27,
        "Survey_Year": 2012
      },
      "geometry": {
        "type": "Polygon",
        "coordinates": [
          [
            [
              82.50303,
              25.00298
            ],
            [
              82.50398344610639,
              25.00298
            ],
            [
              82.50398,
              25.00393
            ],
            [
              82.50303,
              25.003978340647127
            ],
            [
              82.50303,
              25.00298
            ]
          ]
        ]
      }
    },
    {
      "type": "Feature",
      "properties": {
        "Khasra_No": "135",
        "Owner_Name": "Owner_135",
        "Land_Type": "Commercial",
        "Recorded_Area": 8.67,
        "Survey_Year": 2012
      },
      "geometry": {
        "type": "Polygon",
        "coordinates": [
          [
            [
              82.50303,
              25.003980000000002
            ],
            [
              82.50394287671243,
              25.003980000000002
            ],
            [
              82.50398,
              25.00493
            ],
            [
              82.50303,
              25.004893418609537
            ],
            [
              82.50303,
              25.003980000000002
            ]
          ]
        ]
      }
    },
    {
      "type": "Feature",
      "properties": {
        "Khasra_No": "136",
        "Owner_Name": "Owner_136",
        "Land_Type": "Agricultural",
        "Recorded_Area": 8.93,
        "Survey_Year": 2012
      },
      "geometry": {
        "type": "Polygon",
        "coordinates": [
          [
            [
              82.50303,
              25.00498
            ],
            [
              82.50395734125304,
              25.00498
            ],
            [
              82.50398,
              25.00593
            ],
            [
              82.50303,
              25.005932630528143
            ],
            [
              82.50303,
              25.00498
            ]
          ]
        ]
      }
    },
    {
      "type": "Feature",
      "properties": {
        "Khasra_No": "137",
        "Owner_Name": "Owner_137",
        "Land_Type": "Commercial",
        "Recorded_Area": 9.09,
        "Survey_Year": 2012
      },
      "geometry": {
        "type": "Polygon",
        "coordinates": [
          [
            [
              82.50303,
              25.00598
            ],
            [
              82.5039832726096,
              25.00598
            ],
            [
              82.50398,
              25.00693
            ],
            [
              82.50303,
              25.00694010391544
            ],
            [
              82.50303,
              25.00598
            ]
          ]
        ]
      }
    },
    {
      "type": "Feature",
      "properties": {
        "Khasra_No": "138",
        "Owner_Name": "Owner_138",
        "Land_Type": "Commercial",
        "Recorded_Area": 9.35,
        "Survey_Year": 2012
      },
      "geometry": {
        "type": "Polygon",
        "coordinates": [
          [
            [
              82.50303,
              25.006980000000002
            ],
            [
              82.50401602539557,
              25.006980000000002
            ],
            [
              82.50398,
              25.00793
            ],
            [
              82.50303,
              25.00796301690392
            ],
            [
              82.50303,
              25.006980000000002
            ]
          ]
        ]
      }
    },
    {
      "type": "Feature",
      "properties": {
        "Khasra_No": "139",
        "Owner_Name": "Owner_139",
        "Land_Type": "Agricultural",
        "Recorded_Area": 9.25,
        "Survey_Year": 2012
      },
      "geometry": {
        "type": "Polygon",
        "coordinates": [
          [
            [
              82.50303,
              25.00798
            ],
            [
              82.50398425938249,
              25.00798
            ],
            [
              82.50398,
              25.00893
            ],
            [
              82.50303,
              25.0089733763806
            ],
            [
              82.50303,
              25.00798
            ]
          ]
        ]
      }
    },
    {
      "type": "Feature",
      "properties": {
        "Khasra_No": "140",
        "Owner_Name": "Owner_140",
        "Land_Type": "Mixed Use",
        "Recorded_Area": 8.74,
        "Survey_Year": 2012
      },
      "geometry": {
        "type": "Polygon",
        "coordinates": [
          [
            [
              82.50303,
              25.00898
            ],
            [
              82.50396504004853,
              25.00898
            ],
            [
              82.50398,
              25.00993
            ],
            [
              82.50303,
              25.009884776765933
            ],
            [
              82.50303,
              25.00898
            ]
          ]
        ]
      }
    },
    {
      "type": "Feature",
      "properties": {
        "Khasra_No": "141",
        "Owner_Name": "Owner_141",
        "Land_Type": "Agricultural",
        "Recorded_Area": 9.14,
        "Survey_Year": 2012
      },
      "geometry": {
        "type": "Polygon",
        "coordinates": [
          [
            [
              82.50403,
              24.99998
            ],
            [
              82.50497382280653,
              24.99998
            ],
            [
              82.50498,
              25.00093
            ],
            [
              82.50403,
              25.00096023098167
            ],
            [
              82.50403,
              24.99998
            ]
          ]
        ]
      }
    },
    {
      "type": "Feature",
      "properties": {
        "Khasra_No": "142",
        "Owner_Name": "Owner_142",
        "Land_Type": "Agricultural",
        "Recorded_Area": 9.29,
        "Survey_Year": 2012
      },
      "geometry": {
        "type": "Polygon",
        "coordinates": [
          [
            [
              82.50403,
              25.000980000000002
            ],
            [
              82.50502540035778,
              25.000980000000002
            ],
            [
              82.50498,
              25.00193
            ],
            [
              82.50403,
              25.00193995042046
            ],
            [
              82.50403,
              25.000980000000002
            ]
          ]
        ]
      }
    },
    {
      "type": "Feature",
      "properties": {
        "Khasra_No": "143",
        "Owner_Name": "Owner_143",
        "Land_Type": "Mixed Use",
        "Recorded_Area": 9.22,
        "Survey_Year": 2012
      },
      "geometry": {
        "type": "Polygon",
        "coordinates": [
          [
            [
              82.50403,
              25.00198
            ],
            [
              82.50497788909041,
              25.00198
            ],
            [
              82.50498,
              25.00293
            ],
            [
              82.50403,
              25.00297342647601
            ],
            [
              82.50403,
              25.00198
            ]
          ]
        ]
      }
    },
    {
      "type": "Feature",
      "properties": {
        "Khasra_No": "144",
        "Owner_Name": "Owner_144",
        "Land_Type": "Mixed Use",
        "Recorded_Area": 8.86,
        "Survey_Year": 2012
      },
      "geometry": {
        "type": "Polygon",
        "coordinates": [
          [
            [
              82.50403,
              25.00298
            ],
            [
              82.50494407356932,
              25.00298
            ],
            [
              82.50498,
              25.00393
            ],
            [
              82.50403,
              25.003931633730758
            ],
            [
              82.50403,
              25.00298
            ]
          ]
        ]
      }
    },
    {
      "type": "Feature",
      "properties": {
        "Khasra_No": "145",
        "Owner_Name": "Owner_145",
        "Land_Type": "Commercial",
        "Recorded_Area": 9.01,
        "Survey_Year": 2012
      },
      "geometry": {
        "type": "Polygon",
        "coordinates": [
          [
            [
              82.50403,
              25.003980000000002
            ],
            [
              82.50501760718805,
              25.003980000000002
            ],
            [
              82.50498,
              25.00493
            ],
            [
              82.50403,
              25.004889070665463
            ],
            [
              82.50403,
              25.003980000000002
            ]
          ]
        ]
      }
    },
    {
      "type": "Feature",
      "properties": {
        "Khasra_No": "146",
        "Owner_Name": "Owner_146",
        "Land_Type": "Mixed Use",
        "Recorded_Area": 9.19,
        "Survey_Year": 2012
      },
      "geometry": {
        "type": "Polygon",
        "coordinates": [
          [
            [
              82.50403,
              25.00498
            ],
            [
              82.50501047052121,
              25.00498
            ],
            [
              82.50498,
              25.00593
            ],
            [
              82.50403,
              25.00593374408278
            ],
            [
              82.50403,
              25.00498
            ]
          ]
        ]
      }
    },
    {
      "type": "Feature",
      "properties": {
        "Khasra_No": "147",
        "Owner_Name": "Owner_147",
        "Land_Type": "Agricultural",
        "Recorded_Area": 9.18,
        "Survey_Year": 2012
      },
      "geometry": {
        "type": "Polygon",
        "coordinates": [
          [
            [
              82.50403,
              25.00598
            ],
            [
              82.50497691047943,
              25.00598
            ],
            [
              82.50498,
              25.00693
            ],
            [
              82.50403,
              25.0069648304213
            ],
            [
              82.50403,
              25.00598
            ]
          ]
        ]
      }
    },
    {
      "type": "Feature",
      "properties": {
        "Khasra_No": "148",
        "Owner_Name": "Owner_148",
        "Land_Type": "Agricultural",
        "Recorded_Area": 8.66,
        "Survey_Year": 2012
      },
      "geometry": {
        "type": "Polygon",
        "coordinates": [
          [
            [
              82.50403,
              25.006980000000002
            ],
            [
              82.50494122120973,
              25.006980000000002
            ],
            [
              82.50498,
              25.00793
            ],
            [
              82.50403,
              25.007891170601084
            ],
            [
              82.50403,
              25.006980000000002
            ]
          ]
        ]
      }
    },
    {
      "type": "Feature",
      "properties": {
        "Khasra_No": "149",
        "Owner_Name": "Owner_149",
        "Land_Type": "Commercial",
        "Recorded_Area": 9.08,
        "Survey_Year": 2012
      },
      "geometry": {
        "type": "Polygon",
        "coordinates": [
          [
            [
              82.50403,
              25.00798
            ],
            [
              82.50494536305236,
              25.00798
            ],
            [
              82.50498,
              25.00893
            ],
            [
              82.50403,
              25.008976359920048
            ],
            [
              82.50403,
              25.00798
            ]
          ]
        ]
      }
    },
    {
      "type": "Feature",
      "properties": {
        "Khasra_No": "150",
        "Owner_Name": "Owner_150",
        "Land_Type": "Agricultural",
        "Recorded_Area": 9.18,
        "Survey_Year": 2012
      },
      "geometry": {
        "type": "Polygon",
        "coordinates": [
          [
            [
              82.50403,
              25.00898
            ],
            [
              82.50500145567112,
              25.00898
            ],
            [
              82.50498,
              25.00993
            ],
            [
              82.50403,
              25.009940337011997
            ],
            [
              82.50403,
              25.00898
            ]
          ]
        ]
      }
    },
    {
      "type": "Feature",
      "properties": {
        "Khasra_No": "151",
        "Owner_Name": "Owner_151",
        "Land_Type": "Mixed Use",
        "Recorded_Area": 9.19,
        "Survey_Year": 2012
      },
      "geometry": {
        "type": "Polygon",
        "coordinates": [
          [
            [
              82.50502999999999,
              24.99998
            ],
            [
              82.5060171219556,
              24.99998
            ],
            [
              82.50598,
              25.00093
            ],
            [
              82.50502999999999,
              25.000928238205088
            ],
            [
              82.50502999999999,
              24.99998
            ]
          ]
        ]
      }
    },
    {
      "type": "Feature",
      "properties": {
        "Khasra_No": "152",
        "Owner_Name": "Owner_152",
        "Land_Type": "Residential",
        "Recorded_Area": 8.92,
        "Survey_Year": 2012
      },
      "geometry": {
        "type": "Polygon",
        "coordinates": [
          [
            [
              82.50502999999999,
              25.000980000000002
            ],
            [
              82.50593969708225,
              25.000980000000002
            ],
            [
              82.50598,
              25.00193
            ],
            [
              82.50502999999999,
              25.00194885434917
            ],
            [
              82.50502999999999,
              25.000980000000002
            ]
          ]
        ]
      }
    },
    {
      "type": "Feature",
      "properties": {
        "Khasra_No": "153",
        "Owner_Name": "Owner_153",
        "Land_Type": "Residential",
        "Recorded_Area": 8.75,
        "Survey_Year": 2012
      },
      "geometry": {
        "type": "Polygon",
        "coordinates": [
          [
            [
              82.50502999999999,
              25.00198
            ],
            [
              82.50593014860073,
              25.00198
            ],
            [
              82.50598,
              25.00293
            ],
            [
              82.50502999999999,
              25.00292293694573
            ],
            [
              82.50502999999999,
              25.00198
            ]
          ]
        ]
      }
    },
    {
      "type": "Feature",
      "properties": {
        "Khasra_No": "154",
        "Owner_Name": "Owner_154",
        "Land_Type": "Residential",
        "Recorded_Area": 9.29,
        "Survey_Year": 2012
      },
      "geometry": {
        "type": "Polygon",
        "coordinates": [
          [
            [
              82.50502999999999,
              25.00298
            ],
            [
              82.5059961639237,
              25.00298
            ],
            [
              82.50598,
              25.00393
            ],
            [
              82.50502999999999,
              25.003970669030128
            ],
            [
              82.50502999999999,
              25.00298
            ]
          ]
        ]
      }
    },
    {
      "type": "Feature",
      "properties": {
        "Khasra_No": "155",
        "Owner_Name": "Owner_155",
        "Land_Type": "Residential",
        "Recorded_Area": 9.38,
        "Survey_Year": 2012
      },
      "geometry": {
        "type": "Polygon",
        "coordinates": [
          [
            [
              82.50502999999999,
              25.003980000000002
            ],
            [
              82.50602305298352,
              25.003980000000002
            ],
            [
              82.50598,
              25.00493
            ],
            [
              82.50502999999999,
              25.00496158155099
            ],
            [
              82.50502999999999,
              25.003980000000002
            ]
          ]
        ]
      }
    },
    {
      "type": "Feature",
      "properties": {
        "Khasra_No": "156",
        "Owner_Name": "Owner_156",
        "Land_Type": "Commercial",
        "Recorded_Area": 9.16,
        "Survey_Year": 2012
      },
      "geometry": {
        "type": "Polygon",
        "coordinates": [
          [
            [
              82.50502999999999,
              25.00498
            ],
            [
              82.50599684023886,
              25.00498
            ],
            [
              82.50598,
              25.00593
            ],
            [
              82.50502999999999,
              25.005942360068754
            ],
            [
              82.50502999999999,
              25.00498
            ]
          ]
        ]
      }
    },
    {
      "type": "Feature",
      "properties": {
        "Khasra_No": "157",
        "Owner_Name": "Owner_157",
        "Land_Type": "Residential",
        "Recorded_Area": 9.02,
        "Survey_Year": 2012
      },
      "geometry": {
        "type": "Polygon",
        "coordinates": [
          [
            [
              82.50502999999999,
              25.00598
            ],
            [
              82.5059773698272,
              25.00598
            ],
            [
              82.50598,
              25.00693
            ],
            [
              82.50502999999999,
              25.006931999613755
            ],
            [
              82.50502999999999,
              25.00598
            ]
          ]
        ]
      }
    },
    {
      "type": "Feature",
      "properties": {
        "Khasra_No": "158",
        "Owner_Name": "Owner_158",
        "Land_Type": "Residential",
        "Recorded_Area": 8.6,
        "Survey_Year": 2012
      },
      "geometry": {
        "type": "Polygon",
        "coordinates": [
          [
            [
              82.50502999999999,
              25.006980000000002
            ],
            [
              82.5059333955602,
              25.006980000000002
            ],
            [
              82.50598,
              25.00793
            ],
            [
              82.50502999999999,
              25.007887861772755
            ],
            [
              82.50502999999999,
              25.006980000000002
            ]
          ]
        ]
      }
    },
    {
      "type": "Feature",
      "properties": {
        "Khasra_No": "159",
        "Owner_Name": "Owner_159",
        "Land_Type": "Agricultural",
        "Recorded_Area": 9.05,
        "Survey_Year": 2012
      },
      "geometry": {
        "type": "Polygon",
        "coordinates": [
          [
            [
              82.50502999999999,
              25.00798
            ],
            [
              82.50600902125299,
              25.00798
            ],
            [
              82.50598,
              25.00893
            ],
            [
              82.50502999999999,
              25.00890611258968
            ],
            [
              82.50502999999999,
              25.00798
            ]
          ]
        ]
      }
    },
    {
      "type": "Feature",
      "properties": {
        "Khasra_No": "160",
        "Owner_Name": "Owner_160",
        "Land_Type": "Agricultural",
        "Recorded_Area": 8.99,
        "Survey_Year": 2012
      },
      "geometry": {
        "type": "Polygon",
        "coordinates": [
          [
            [
              82.50502999999999,
              25.00898
            ],
            [
              82.50597257111207,
              25.00898
            ],
            [
              82.50598,
              25.00993
            ],
            [
              82.50502999999999,
              25.00992920019975
            ],
            [
              82.50502999999999,
              25.00898
            ]
          ]
        ]
      }
    },
    {
      "type": "Feature",
      "properties": {
        "Khasra_No": "161",
        "Owner_Name": "Owner_161",
        "Land_Type": "Commercial",
        "Recorded_Area": 9.04,
        "Survey_Year": 2012
      },
      "geometry": {
        "type": "Polygon",
        "coordinates": [
          [
            [
              82.50603,
              24.99998
            ],
            [
              82.50697920925973,
              24.99998
            ],
            [
              82.50698,
              25.00093
            ],
            [
              82.50603,
              25.000933089347647
            ],
            [
              82.50603,
              24.99998
            ]
          ]
        ]
      }
    },
    {
      "type": "Feature",
      "properties": {
        "Khasra_No": "162",
        "Owner_Name": "Owner_162",
        "Land_Type": "Residential",
        "Recorded_Area": 9.13,
        "Survey_Year": 2012
      },
      "geometry": {
        "type": "Polygon",
        "coordinates": [
          [
            [
              82.50603,
              25.000980000000002
            ],
            [
              82.50699917019641,
              25.000980000000002
            ],
            [
              82.50698,
              25.00193
            ],
            [
              82.50603,
              25.00193197136471
            ],
            [
              82.50603,
              25.000980000000002
            ]
          ]
        ]
      }
    },
    {
      "type": "Feature",
      "properties": {
        "Khasra_No": "163",
        "Owner_Name": "Owner_163",
        "Land_Type": "Mixed Use",
        "Recorded_Area": 9.01,
        "Survey_Year": 2012
      },
      "geometry": {
        "type": "Polygon",
        "coordinates": [
          [
            [
              82.50603,
              25.00198
            ],
            [
              82.50698458805924,
              25.00198
            ],
            [
              82.50698,
              25.00293
            ],
            [
              82.50603,
              25.00292301960986
            ],
            [
              82.50603,
              25.00198
            ]
          ]
        ]
      }
    },
    {
      "type": "Feature",
      "properties": {
        "Khasra_No": "164",
        "Owner_Name": "Owner_164",
        "Land_Type": "Mixed Use",
        "Recorded_Area": 9.06,
        "Survey_Year": 2012
      },
      "geometry": {
        "type": "Polygon",
        "coordinates": [
          [
            [
              82.50603,
              25.00298
            ],
            [
              82.5069948549151,
              25.00298
            ],
            [
              82.50698,
              25.00393
            ],
            [
              82.50603,
              25.003922976493598
            ],
            [
              82.50603,
              25.00298
            ]
          ]
        ]
      }
    },
    {
      "type": "Feature",
      "properties": {
        "Khasra_No": "165",
        "Owner_Name": "Owner_165",
        "Land_Type": "Residential",
        "Recorded_Area": 9.27,
        "Survey_Year": 2012
      },
      "geometry": {
        "type": "Polygon",
        "coordinates": [
          [
            [
              82.50603,
              25.003980000000002
            ],
            [
              82.50699002599515,
              25.003980000000002
            ],
            [
              82.50698,
              25.00493
            ],
            [
              82.50603,
              25.004971821576728
            ],
            [
              82.50603,
              25.003980000000002
            ]
          ]
        ]
      }
    },
    {
      "type": "Feature",
      "properties": {
        "Khasra_No": "166",
        "Owner_Name": "Owner_166",
        "Land_Type": "Residential",
        "Recorded_Area": 9.27,
        "Survey_Year": 2012
      },
      "geometry": {
        "type": "Polygon",
        "coordinates": [
          [
            [
              82.50603,
              25.00498
            ],
            [
              82.50702733692152,
              25.00498
            ],
            [
              82.50698,
              25.00593
            ],
            [
              82.50603,
              25.005935019746193
            ],
            [
              82.50603,
              25.00498
            ]
          ]
        ]
      }
    },
    {
      "type": "Feature",
      "properties": {
        "Khasra_No": "167",
        "Owner_Name": "Owner_167",
        "Land_Type": "Residential",
        "Recorded_Area": 8.99,
        "Survey_Year": 2012
      },
      "geometry": {
        "type": "Polygon",
        "coordinates": [
          [
            [
              82.50603,
              25.00598
            ],
            [
              82.50699367634991,
              25.00598
            ],
            [
              82.50698,
              25.00693
            ],
            [
              82.50603,
              25.00690953425187
            ],
            [
              82.50603,
              25.00598
            ]
          ]
        ]
      }
    },
    {
      "type": "Feature",
      "properties": {
        "Khasra_No": "168",
        "Owner_Name": "Owner_168",
        "Land_Type": "Agricultural",
        "Recorded_Area": 9.23,
        "Survey_Year": 2012
      },
      "geometry": {
        "type": "Polygon",
        "coordinates": [
          [
            [
              82.50603,
              25.006980000000002
            ],
            [
              82.50698879323406,
              25.006980000000002
            ],
            [
              82.50698,
              25.00793
            ],
            [
              82.50603,
              25.007964996380135
            ],
            [
              82.50603,
              25.006980000000002
            ]
          ]
        ]
      }
    },
    {
      "type": "Feature",
      "properties": {
        "Khasra_No": "169",
        "Owner_Name": "Owner_169",
        "Land_Type": "Commercial",
        "Recorded_Area": 8.8,
        "Survey_Year": 2012
      },
      "geometry": {
        "type": "Polygon",
        "coordinates": [
          [
            [
              82.50603,
              25.00798
            ],
            [
              82.50695067209443,
              25.00798
            ],
            [
              82.50698,
              25.00893
            ],
            [
              82.50603,
              25.008911051348488
            ],
            [
              82.50603,
              25.00798
            ]
          ]
        ]
      }
    },
    {
      "type": "Feature",
      "properties": {
        "Khasra_No": "170",
        "Owner_Name": "Owner_170",
        "Land_Type": "Mixed Use",
        "Recorded_Area": 8.95,
        "Survey_Year": 2012
      },
      "geometry": {
        "type": "Polygon",
        "coordinates": [
          [
            [
              82.50603,
              25.00898
            ],
            [
              82.50699232854998,
              25.00898
            ],
            [
              82.50698,
              25.00993
            ],
            [
              82.50603,
              25.009901701882015
            ],
            [
              82.50603,
              25.00898
            ]
          ]
        ]
      }
    },
    {
      "type": "Feature",
      "properties": {
        "Khasra_No": "171",
        "Owner_Name": "Owner_171",
        "Land_Type": "Mixed Use",
        "Recorded_Area": 9.22,
        "Survey_Year": 2012
      },
      "geometry": {
        "type": "Polygon",
        "coordinates": [
          [
            [
              82.50703,
              24.99998
            ],
            [
              82.50799525333593,
              24.99998
            ],
            [
              82.50798,
              25.00093
            ],
            [
              82.50703,
              25.000955726116885
            ],
            [
              82.50703,
              24.99998
            ]
          ]
        ]
      }
    },
    {
      "type": "Feature",
      "properties": {
        "Khasra_No": "172",
        "Owner_Name": "Owner_172",
        "Land_Type": "Agricultural",
        "Recorded_Area": 8.89,
        "Survey_Year": 2012
      },
      "geometry": {
        "type": "Polygon",
        "coordinates": [
          [
            [
              82.50703,
              25.000980000000002
            ],
            [
              82.50794118629484,
              25.000980000000002
            ],
            [
              82.50798,
              25.00193
            ],
            [
              82.50703,
              25.001940905686375
            ],
            [
              82.50703,
              25.000980000000002
            ]
          ]
        ]
      }
    },
    {
      "type": "Feature",
      "properties": {
        "Khasra_No": "173",
        "Owner_Name": "Owner_173",
        "Land_Type": "Commercial",
        "Recorded_Area": 8.93,
        "Survey_Year": 2012
      },
      "geometry": {
        "type": "Polygon",
        "coordinates": [
          [
            [
              82.50703,
              25.00198
            ],
            [
              82.50795224663379,
              25.00198
            ],
            [
              82.50798,
              25.00293
            ],
            [
              82.50703,
              25.002938683917062
            ],
            [
              82.50703,
              25.00198
            ]
          ]
        ]
      }
    },
    {
      "type": "Feature",
      "properties": {
        "Khasra_No": "174",
        "Owner_Name": "Owner_174",
        "Land_Type": "Mixed Use",
        "Recorded_Area": 9.0,
        "Survey_Year": 2012
      },
      "geometry": {
        "type": "Polygon",
        "coordinates": [
          [
            [
              82.50703,
              25.00298
            ],
            [
              82.50795394355492,
              25.00298
            ],
            [
              82.50798,
              25.00393
            ],
            [
              82.50703,
              25.00395158628425
            ],
            [
              82.50703,
              25.00298
            ]
          ]
        ]
      }
    },
    {
      "type": "Feature",
      "properties": {
        "Khasra_No": "175",
        "Owner_Name": "Owner_175",
        "Land_Type": "Agricultural",
        "Recorded_Area": 9.36,
        "Survey_Year": 2012
      },
      "geometry": {
        "type": "Polygon",
        "coordinates": [
          [
            [
              82.50703,
              25.003980000000002
            ],
            [
              82.50802674050118,
              25.003980000000002
            ],
            [
              82.50798,
              25.00493
            ],
            [
              82.50703,
              25.004954706396838
            ],
            [
              82.50703,
              25.003980000000002
            ]
          ]
        ]
      }
    },
    {
      "type": "Feature",
      "properties": {
        "Khasra_No": "176",
        "Owner_Name": "Owner_176",
        "Land_Type": "Commercial",
        "Recorded_Area": 9.39,
        "Survey_Year": 2012
      },
      "geometry": {
        "type": "Polygon",
        "coordinates": [
          [
            [
              82.50703,
              25.00498
            ],
            [
              82.50802637175262,
              25.00498
            ],
            [
              82.50798,
              25.00593
            ],
            [
              82.50703,
              25.005961417051815
            ],
            [
              82.50703,
              25.00498
            ]
          ]
        ]
      }
    },
    {
      "type": "Feature",
      "properties": {
        "Khasra_No": "177",
        "Owner_Name": "Owner_177",
        "Land_Type": "Commercial",
        "Recorded_Area": 9.17,
        "Survey_Year": 2012
      },
      "geometry": {
        "type": "Polygon",
        "coordinates": [
          [
            [
              82.50703,
              25.00598
            ],
            [
              82.50801165169193,
              25.00598
            ],
            [
              82.50798,
              25.00693
            ],
            [
              82.50703,
              25.006929297465856
            ],
            [
              82.50703,
              25.00598
            ]
          ]
        ]
      }
    },
    {
      "type": "Feature",
      "properties": {
        "Khasra_No": "178",
        "Owner_Name": "Owner_178",
        "Land_Type": "Mixed Use",
        "Recorded_Area": 8.9,
        "Survey_Year": 2012
      },
      "geometry": {
        "type": "Polygon",
        "coordinates": [
          [
            [
              82.50703,
              25.006980000000002
            ],
            [
              82.50795130983252,
              25.006980000000002
            ],
            [
              82.50798,
              25.00793
            ],
            [
              82.50703,
              25.00793275302615
            ],
            [
              82.50703,
              25.006980000000002
            ]
          ]
        ]
      }
    },
    {
      "type": "Feature",
      "properties": {
        "Khasra_No": "179",
        "Owner_Name": "Owner_179",
        "Land_Type": "Commercial",
        "Recorded_Area": 9.2,
        "Survey_Year": 2012
      },
      "geometry": {
        "type": "Polygon",
        "coordinates": [
          [
            [
              82.50703,
              25.00798
            ],
            [
              82.50799525841035,
              25.00798
            ],
            [
              82.50798,
              25.00893
            ],
            [
              82.50703,
              25.00895149135288
            ],
            [
              82.50703,
              25.00798
            ]
          ]
        ]
      }
    },
    {
      "type": "Feature",
      "properties": {
        "Khasra_No": "180",
        "Owner_Name": "Owner_180",
        "Land_Type": "Mixed Use",
        "Recorded_Area": 9.16,
        "Survey_Year": 2012
      },
      "geometry": {
        "type": "Polygon",
        "coordinates": [
          [
            [
              82.50703,
              25.00898
            ],
            [
              82.50797964306442,
              25.00898
            ],
            [
              82.50798,
              25.00993
            ],
            [
              82.50703,
              25.009958171487472
            ],
            [
              82.50703,
              25.00898
            ]
          ]
        ]
      }
    },
    {
      "type": "Feature",
      "properties": {
        "Khasra_No": "181",
        "Owner_Name": "Owner_181",
        "Land_Type": "Mixed Use",
        "Recorded_Area": 9.49,
        "Survey_Year": 2012
      },
      "geometry": {
        "type": "Polygon",
        "coordinates": [
          [
            [
              82.50802999999999,
              24.99998
            ],
            [
              82.50902988286488,
              24.99998
            ],
            [
              82.50898,
              25.00093
            ],
            [
              82.50802999999999,
              25.000977287398168
            ],
            [
              82.50802999999999,
              24.99998
            ]
          ]
        ]
      }
    },
    {
      "type": "Feature",
      "properties": {
        "Khasra_No": "182",
        "Owner_Name": "Owner_182",
        "Land_Type": "Residential",
        "Recorded_Area": 8.94,
        "Survey_Year": 2012
      },
      "geometry": {
        "type": "Polygon",
        "coordinates": [
          [
            [
              82.50802999999999,
              25.000980000000002
            ],
            [
              82.50896571884475,
              25.000980000000002
            ],
            [
              82.50898,
              25.00193
            ],
            [
              82.50802999999999,
              25.001926566553326
            ],
            [
              82.50802999999999,
              25.000980000000002
            ]
          ]
        ]
      }
    },
    {
      "type": "Feature",
      "properties": {
        "Khasra_No": "183",
        "Owner_Name": "Owner_183",
        "Land_Type": "Agricultural",
        "Recorded_Area": 8.96,
        "Survey_Year": 2012
      },
      "geometry": {
        "type": "Polygon",
        "coordinates": [
          [
            [
              82.50802999999999,
              25.00198
            ],
            [
              82.50894657763703,
              25.00198
            ],
            [
              82.50898,
              25.00293
            ],
            [
              82.50802999999999,
              25.00294918074903
            ],
            [
              82.50802999999999,
              25.00198
            ]
          ]
        ]
      }
    },
    {
      "type": "Feature",
      "properties": {
        "Khasra_No": "184",
        "Owner_Name": "Owner_184",
        "Land_Type": "Commercial",
        "Recorded_Area": 8.84,
        "Survey_Year": 2012
      },
      "geometry": {
        "type": "Polygon",
        "coordinates": [
          [
            [
              82.50802999999999,
              25.00298
            ],
            [
              82.50895354920794,
              25.00298
            ],
            [
              82.50898,
              25.00393
            ],
            [
              82.50802999999999,
              25.003917349276897
            ],
            [
              82.50802999999999,
              25.00298
            ]
          ]
        ]
      }
    },
    {
      "type": "Feature",
      "properties": {
        "Khasra_No": "185",
        "Owner_Name": "Owner_185",
        "Land_Type": "Commercial",
        "Recorded_Area": 8.92,
        "Survey_Year": 2012
      },
      "geometry": {
        "type": "Polygon",
        "coordinates": [
          [
            [
              82.50802999999999,
              25.003980000000002
            ],
            [
              82.50897968608263,
              25.003980000000002
            ],
            [
              82.50898,
              25.00493
            ],
            [
              82.50802999999999,
              25.004908876839433
            ],
            [
              82.50802999999999,
              25.003980000000002
            ]
          ]
        ]
      }
    },
    {
      "type": "Feature",
      "properties": {
        "Khasra_No": "186",
        "Owner_Name": "Owner_186",
        "Land_Type": "Commercial",
        "Recorded_Area": 9.24,
        "Survey_Year": 2012
      },
      "geometry": {
        "type": "Polygon",
        "coordinates": [
          [
            [
              82.50802999999999,
              25.00498
            ],
            [
              82.5089800935277,
              25.00498
            ],
            [
              82.50898,
              25.00593
            ],
            [
              82.50802999999999,
              25.005974339492152
            ],
            [
              82.50802999999999,
              25.00498
            ]
          ]
        ]
      }
    },
    {
      "type": "Feature",
      "properties": {
        "Khasra_No": "187",
        "Owner_Name": "Owner_187",
        "Land_Type": "Agricultural",
        "Recorded_Area": 9.11,
        "Survey_Year": 2012
      },
      "geometry": {
        "type": "Polygon",
        "coordinates": [
          [
            [
              82.50802999999999,
              25.00598
            ],
            [
              82.50898451102191,
              25.00598
            ],
            [
              82.50898,
              25.00693
            ],
            [
              82.50802999999999,
              25.00694332124062
            ],
            [
              82.50802999999999,
              25.00598
            ]
          ]
        ]
      }
    },
    {
      "type": "Feature",
      "properties": {
        "Khasra_No": "188",
        "Owner_Name": "Owner_188",
        "Land_Type": "Commercial",
        "Recorded_Area": 9.16,
        "Survey_Year": 2012
      },
      "geometry": {
        "type": "Polygon",
        "coordinates": [
          [
            [
              82.50802999999999,
              25.006980000000002
            ],
            [
              82.5090255174459,
              25.006980000000002
            ],
            [
              82.50898,
              25.00793
            ],
            [
              82.50802999999999,
              25.007913090606593
            ],
            [
              82.50802999999999,
              25.006980000000002
            ]
          ]
        ]
      }
    },
    {
      "type": "Feature",
      "properties": {
        "Khasra_No": "189",
        "Owner_Name": "Owner_189",
        "Land_Type": "Residential",
        "Recorded_Area": 9.17,
        "Survey_Year": 2012
      },
      "geometry": {
        "type": "Polygon",
        "coordinates": [
          [
            [
              82.50802999999999,
              25.00798
            ],
            [
              82.50900109380022,
              25.00798
            ],
            [
              82.50898,
              25.00893
            ],
            [
              82.50802999999999,
              25.008939720223033
            ],
            [
              82.50802999999999,
              25.00798
            ]
          ]
        ]
      }
    },
    {
      "type": "Feature",
      "properties": {
        "Khasra_No": "190",
        "Owner_Name": "Owner_190",
        "Land_Type": "Residential",
        "Recorded_Area": 9.32,
        "Survey_Year": 2012
      },
      "geometry": {
        "type": "Polygon",
        "coordinates": [
          [
            [
              82.50802999999999,
              25.00898
            ],
            [
              82.50900169624049,
              25.00898
            ],
            [
              82.50898,
              25.00993
            ],
            [
              82.50802999999999,
              25.009969878008075
            ],
            [
              82.50802999999999,
              25.00898
            ]
          ]
        ]
      }
    },
    {
      "type": "Feature",
      "properties": {
        "Khasra_No": "191",
        "Owner_Name": "Owner_191",
        "Land_Type": "Commercial",
        "Recorded_Area": 8.94,
        "Survey_Year": 2012
      },
      "geometry": {
        "type": "Polygon",
        "coordinates": [
          [
            [
              82.50903,
              24.99998
            ],
            [
              82.50995237983035,
              24.99998
            ],
            [
              82.50998,
              25.00093
            ],
            [
              82.50903,
              25.000939549478122
            ],
            [
              82.50903,
              24.99998
            ]
          ]
        ]
      }
    },
    {
      "type": "Feature",
      "properties": {
        "Khasra_No": "192",
        "Owner_Name": "Owner_192",
        "Land_Type": "Residential",
        "Recorded_Area": 9.06,
        "Survey_Year": 2012
      },
      "geometry": {
        "type": "Polygon",
        "coordinates": [
          [
            [
              82.50903,
              25.000980000000002
            ],
            [
              82.50994886897377,
              25.000980000000002
            ],
            [
              82.50998,
              25.00193
            ],
            [
              82.50903,
              25.001967805404302
            ],
            [
              82.50903,
              25.000980000000002
            ]
          ]
        ]
      }
    },
    {
      "type": "Feature",
      "properties": {
        "Khasra_No": "193",
        "Owner_Name": "Owner_193",
        "Land_Type": "Commercial",
        "Recorded_Area": 8.93,
        "Survey_Year": 2012
      },
      "geometry": {
        "type": "Polygon",
        "coordinates": [
          [
            [
              82.50903,
              25.00198
            ],
            [
              82.50993097503738,
              25.00198
            ],
            [
              82.50998,
              25.00293
            ],
            [
              82.50903,
              25.00295820102801
            ],
            [
              82.50903,
              25.00198
            ]
          ]
        ]
      }
    },
    {
      "type": "Feature",
      "properties": {
        "Khasra_No": "194",
        "Owner_Name": "Owner_194",
        "Land_Type": "Agricultural",
        "Recorded_Area": 8.8,
        "Survey_Year": 2012
      },
      "geometry": {
        "type": "Polygon",
        "coordinates": [
          [
            [
              82.50903,
              25.00298
            ],
            [
              82.50998273160269,
              25.00298
            ],
            [
              82.50998,
              25.00393
            ],
            [
              82.50903,
              25.00388079725516
            ],
            [
              82.50903,
              25.00298
            ]
          ]
        ]
      }
    },
    {
      "type": "Feature",
      "properties": {
        "Khasra_No": "195",
        "Owner_Name": "Owner_195",
        "Land_Type": "Agricultural",
        "Recorded_Area": 9.0,
        "Survey_Year": 2012
      },
      "geometry": {
        "type": "Polygon",
        "coordinates": [
          [
            [
              82.50903,
              25.003980000000002
            ],
            [
              82.50995817381056,
              25.003980000000002
            ],
            [
              82.50998,
              25.00493
            ],
            [
              82.50903,
              25.004946391360953
            ],
            [
              82.50903,
              25.003980000000002
            ]
          ]
        ]
      }
    },
    {
      "type": "Feature",
      "properties": {
        "Khasra_No": "196",
        "Owner_Name": "Owner_196",
        "Land_Type": "Agricultural",
        "Recorded_Area": 8.86,
        "Survey_Year": 2012
      },
      "geometry": {
        "type": "Polygon",
        "coordinates": [
          [
            [
              82.50903,
              25.00498
            ],
            [
              82.50998771542076,
              25.00498
            ],
            [
              82.50998,
              25.00593
            ],
            [
              82.50903,
              25.00588706447488
            ],
            [
              82.50903,
              25.00498
            ]
          ]
        ]
      }
    },
    {
      "type": "Feature",
      "properties": {
        "Khasra_No": "197",
        "Owner_Name": "Owner_197",
        "Land_Type": "Agricultural",
        "Recorded_Area": 9.08,
        "Survey_Year": 2012
      },
      "geometry": {
        "type": "Polygon",
        "coordinates": [
          [
            [
              82.50903,
              25.00598
            ],
            [
              82.50997143867087,
              25.00598
            ],
            [
              82.50998,
              25.00693
            ],
            [
              82.50903,
              25.006950913598164
            ],
            [
              82.50903,
              25.00598
            ]
          ]
        ]
      }
    },
    {
      "type": "Feature",
      "properties": {
        "Khasra_No": "198",
        "Owner_Name": "Owner_198",
        "Land_Type": "Agricultural",
        "Recorded_Area": 9.19,
        "Survey_Year": 2012
      },
      "geometry": {
        "type": "Polygon",
        "coordinates": [
          [
            [
              82.50903,
              25.006980000000002
            ],
            [
              82.50999467391802,
              25.006980000000002
            ],
            [
              82.50998,
              25.00793
            ],
            [
              82.50903,
              25.007950183955543
            ],
            [
              82.50903,
              25.006980000000002
            ]
          ]
        ]
      }
    },
    {
      "type": "Feature",
      "properties": {
        "Khasra_No": "199",
        "Owner_Name": "Owner_199",
        "Land_Type": "Residential",
        "Recorded_Area": 8.73,
        "Survey_Year": 2012
      },
      "geometry": {
        "type": "Polygon",
        "coordinates": [
          [
            [
              82.50903,
              25.00798
            ],
            [
              82.50994729698795,
              25.00798
            ],
            [
              82.50998,
              25.00893
            ],
            [
              82.50903,
              25.008900266540124
            ],
            [
              82.50903,
              25.00798
            ]
          ]
        ]
      }
    },
    {
      "type": "Feature",
      "properties": {
        "Khasra_No": "200",
        "Owner_Name": "Owner_200",
        "Land_Type": "Mixed Use",
        "Recorded_Area": 9.09,
        "Survey_Year": 2012
      },
      "geometry": {
        "type": "Polygon",
        "coordinates": [
          [
            [
              82.50903,
              25.00898
            ],
            [
              82.50999359616505,
              25.00898
            ],
            [
              82.50998,
              25.00993
            ],
            [
              82.50903,
              25.00992962925771
            ],
            [
              82.50903,
              25.00898
            ]
          ]
        ]
      }
    }
  ]
}